id,address_type,status,entity,street_number_name,apartment_number,city,state_province,zip_code,country,notes,created_at,updated_at
1,Shipping,Active,Customer,1769 Daystar Way,,Seattle,Washington,98140,United States,Aliquam quis turpis eget elit sodales scelerisque. Mauris sit amet eros. Suspendisse accumsan tortor quis turpis. Sed ante. Vivamus tortor. Duis mattis egestas metus. Aenean fermentum.,2016-11-18 23:27:03,2018-03-28 18:31:07
2,Business,Active,Building,383 Debra Court,,Tucson,Arizona,85743,United States,Phasellus sit amet erat. Nulla tempus. Vivamus in felis eu sapien cursus vestibulum. Proin eu mi. Nulla ac enim.,2016-09-30 01:31:09,2019-01-21 23:47:54
3,Billing,Active,Customer,371 Bayside Court,,Corpus Christi,Texas,78415,United States,Donec posuere metus vitae ipsum.,2017-03-04 06:17:39,2017-10-29 05:14:44
4,Home,Active,Building,879 Graceland Circle,,Mobile,Alabama,36622,United States,"Morbi vel lectus in quam fringilla rhoncus. Mauris enim leo, rhoncus sed, vestibulum sit amet, cursus id, turpis. Integer aliquet, massa id lobortis convallis, tortor risus dapibus augue, vel accumsan tellus nisi eu orci. Mauris lacinia sapien quis libero. Nullam sit amet turpis elementum ligula vehicula consequat. Morbi a ipsum. Integer a nibh.",2017-03-19 19:15:20,2017-08-14 21:44:17
5,Billing,Active,Customer,8049 Kingsford Court,,Kansas City,Missouri,64114,United States,"Vivamus vestibulum sagittis sapien. Cum sociis natoque penatibus et magnis dis parturient montes, nascetur ridiculus mus. Etiam vel augue. Vestibulum rutrum rutrum neque. Aenean auctor gravida sem. Praesent id massa id nisl venenatis lacinia. Aenean sit amet justo. Morbi ut odio. Cras mi pede, malesuada in, imperdiet et, commodo vulputate, justo.",2016-06-03 23:37:56,2018-10-05 17:26:35
6,Business,Active,Building,3997 Carberry Point,,Houston,Texas,77206,United States,Nulla facilisi. Cras non velit nec nisi vulputate nonummy. Maecenas tincidunt lacus at velit. Vivamus vel nulla eget eros elementum pellentesque. Quisque porta volutpat erat.,2017-02-26 04:58:38,2018-02-03 02:45:40
7,Billing,Active,Customer,447 Sugar Avenue,9,Fort Wayne,Indiana,46896,United States,"Donec quis orci eget orci vehicula condimentum. Curabitur in libero ut massa volutpat convallis. Morbi odio odio, elementum eu, interdum eu, tincidunt in, leo. Maecenas pulvinar lobortis est.",2017-03-17 01:24:38,2018-05-27 00:43:55
8,Shipping,Active,Building,4 Nevada Parkway,,Knoxville,Tennessee,37931,United States,Vestibulum ante ipsum primis in faucibus orci luctus et ultrices posuere cubilia Curae; Mauris viverra diam vitae quam. Suspendisse potenti. Nullam porttitor lacus at turpis.,2017-05-05 11:22:13,2019-01-19 00:14:57
9,Billing,Active,Customer,505 Dryden Alley,,Alexandria,Virginia,22333,United States,"Maecenas pulvinar lobortis est. Phasellus sit amet erat. Nulla tempus. Vivamus in felis eu sapien cursus vestibulum. Proin eu mi. Nulla ac enim. In tempor, turpis nec euismod scelerisque, quam turpis adipiscing lorem, vitae mattis nibh ligula nec sem. Duis aliquam convallis nunc. Proin at turpis a pede posuere nonummy. Integer non velit.",2016-12-13 23:41:32,2018-08-24 13:09:25
10,Shipping,Active,Building,651 Autumn Leaf Way,,Pensacola,Florida,32505,United States,"Pellentesque ultrices mattis odio. Donec vitae nisi. Nam ultrices, libero non mattis pulvinar, nulla pede ullamcorper augue, a suscipit nulla elit ac nulla. Sed vel enim sit amet nunc viverra dapibus. Nulla suscipit ligula in lacus. Curabitur at ipsum ac tellus semper interdum. Mauris ullamcorper purus sit amet nulla. Quisque arcu libero, rutrum ac, lobortis vel, dapibus at, diam. Nam tristique tortor eu pede.",2016-08-07 11:03:38,2017-09-22 13:15:39
11,Billing,Active,Customer,19 Carioca Pass,,Long Beach,California,90810,United States,"Nulla tempus. Vivamus in felis eu sapien cursus vestibulum. Proin eu mi. Nulla ac enim. In tempor, turpis nec euismod scelerisque, quam turpis adipiscing lorem, vitae mattis nibh ligula nec sem. Duis aliquam convallis nunc. Proin at turpis a pede posuere nonummy. Integer non velit. Donec diam neque, vestibulum eget, vulputate ut, ultrices vel, augue. Vestibulum ante ipsum primis in faucibus orci luctus et ultrices posuere cubilia Curae; Donec pharetra, magna vestibulum aliquet ultrices, erat tortor sollicitudin mi, sit amet lobortis sapien sapien non mi.",2016-08-03 06:47:43,2018-01-03 06:25:34
12,Shipping,Active,Building,756 Debs Road,,Baton Rouge,Louisiana,70826,United States,Curabitur convallis. Duis consequat dui nec nisi volutpat eleifend. Donec ut dolor.,2017-04-18 05:49:01,2018-06-13 10:27:51
13,Business,Active,Customer,9 Amoth Avenue,,Boulder,Colorado,80305,United States,"Phasellus sit amet erat. Nulla tempus. Vivamus in felis eu sapien cursus vestibulum. Proin eu mi. Nulla ac enim. In tempor, turpis nec euismod scelerisque, quam turpis adipiscing lorem, vitae mattis nibh ligula nec sem. Duis aliquam convallis nunc. Proin at turpis a pede posuere nonummy.",2017-03-05 11:30:07,2018-11-10 05:06:14
14,Home,Active,Building,09 Moulton Park,,New Orleans,Louisiana,70160,United States,Etiam pretium iaculis justo. In hac habitasse platea dictumst. Etiam faucibus cursus urna. Ut tellus. Nulla ut erat id mauris vulputate elementum. Nullam varius. Nulla facilisi. Cras non velit nec nisi vulputate nonummy.,2016-04-01 12:05:05,2018-01-22 00:18:39
15,Business,Active,Customer,2049 Maryland Plaza,11,Chicago,Illinois,60657,United States,In hac habitasse platea dictumst. Maecenas ut massa quis augue luctus tincidunt. Nulla mollis molestie lorem. Quisque ut erat.,2016-08-23 01:43:08,2017-07-15 19:17:23
16,Billing,Active,Building,9785 Parkside Drive,,Omaha,Nebraska,68134,United States,"Duis aliquam convallis nunc. Proin at turpis a pede posuere nonummy. Integer non velit. Donec diam neque, vestibulum eget, vulputate ut, ultrices vel, augue. Vestibulum ante ipsum primis in faucibus orci luctus et ultrices posuere cubilia Curae; Donec pharetra, magna vestibulum aliquet ultrices, erat tortor sollicitudin mi, sit amet lobortis sapien sapien non mi. Integer ac neque. Duis bibendum. Morbi non quam nec dui luctus rutrum.",2017-01-24 15:03:06,2018-11-25 01:55:59
17,Billing,Active,Customer,00136 Algoma Park,,Portland,Oregon,97271,United States,"Donec odio justo, sollicitudin ut, suscipit a, feugiat et, eros. Vestibulum ac est lacinia nisi venenatis tristique. Fusce congue, diam id ornare imperdiet, sapien urna pretium nisl, ut volutpat sapien arcu sed augue. Aliquam erat volutpat. In congue. Etiam justo. Etiam pretium iaculis justo.",2016-11-12 05:55:11,2018-12-02 11:09:11
18,Home,Active,Building,9 Johnson Circle,14,Charlotte,North Carolina,28272,United States,"Morbi vel lectus in quam fringilla rhoncus. Mauris enim leo, rhoncus sed, vestibulum sit amet, cursus id, turpis. Integer aliquet, massa id lobortis convallis, tortor risus dapibus augue, vel accumsan tellus nisi eu orci. Mauris lacinia sapien quis libero. Nullam sit amet turpis elementum ligula vehicula consequat. Morbi a ipsum.",2017-05-26 16:31:55,2019-01-21 14:47:45
19,Business,Active,Customer,0328 Jana Terrace,2,Tuscaloosa,Alabama,35405,United States,Maecenas pulvinar lobortis est.,2016-09-10 20:19:01,2018-10-18 19:23:23
20,Home,Active,Building,8819 Lotheville Park,,Prescott,Arizona,86305,United States,"Lorem ipsum dolor sit amet, consectetuer adipiscing elit. Proin risus. Praesent lectus. Vestibulum quam sapien, varius ut, blandit non, interdum in, ante. Vestibulum ante ipsum primis in faucibus orci luctus et ultrices posuere cubilia Curae; Duis faucibus accumsan odio. Curabitur convallis. Duis consequat dui nec nisi volutpat eleifend. Donec ut dolor. Morbi vel lectus in quam fringilla rhoncus. Mauris enim leo, rhoncus sed, vestibulum sit amet, cursus id, turpis.",2017-02-15 15:32:27,2019-01-22 15:06:15
21,Business,Active,Customer,3940 Ridgeway Junction,,Reno,Nevada,89510,United States,"Vivamus tortor. Duis mattis egestas metus. Aenean fermentum. Donec ut mauris eget massa tempor convallis. Nulla neque libero, convallis eget, eleifend luctus, ultricies eu, nibh. Quisque id justo sit amet sapien dignissim vestibulum. Vestibulum ante ipsum primis in faucibus orci luctus et ultrices posuere cubilia Curae; Nulla dapibus dolor vel est. Donec odio justo, sollicitudin ut, suscipit a, feugiat et, eros.",2016-08-24 10:53:39,2017-12-19 13:31:57
22,Shipping,Active,Building,73496 Maryland Road,,Mobile,Alabama,36622,United States,"Donec odio justo, sollicitudin ut, suscipit a, feugiat et, eros. Vestibulum ac est lacinia nisi venenatis tristique. Fusce congue, diam id ornare imperdiet, sapien urna pretium nisl, ut volutpat sapien arcu sed augue. Aliquam erat volutpat. In congue. Etiam justo. Etiam pretium iaculis justo.",2016-11-26 23:46:51,2017-10-16 16:55:38
23,Home,Active,Customer,85565 Artisan Junction,,Gainesville,Georgia,30506,United States,"Pellentesque viverra pede ac diam. Cras pellentesque volutpat dui. Maecenas tristique, est et tempus semper, est quam pharetra magna, ac consequat metus sapien ut nunc. Vestibulum ante ipsum primis in faucibus orci luctus et ultrices posuere cubilia Curae; Mauris viverra diam vitae quam. Suspendisse potenti. Nullam porttitor lacus at turpis. Donec posuere metus vitae ipsum. Aliquam non mauris. Morbi non lectus.",2017-04-12 16:27:56,2018-06-11 20:25:48
24,Business,Active,Building,786 Kedzie Park,,Seattle,Washington,98158,United States,"Nunc purus. Phasellus in felis. Donec semper sapien a libero. Nam dui. Proin leo odio, porttitor id, consequat in, consequat ut, nulla. Sed accumsan felis. Ut at dolor quis odio consequat varius. Integer ac leo. Pellentesque ultrices mattis odio.",2017-04-14 03:59:07,2018-04-02 16:25:14
25,Billing,Active,Customer,26707 Esch Parkway,,Lima,Ohio,45807,United States,"Duis bibendum, felis sed interdum venenatis, turpis enim blandit mi, in porttitor pede justo eu massa. Donec dapibus. Duis at velit eu est congue elementum. In hac habitasse platea dictumst.",2016-06-14 14:18:17,2018-08-25 07:40:37
26,Shipping,Active,Building,4976 Vidon Avenue,13,Washington,District of Columbia,20078,United States,"Vestibulum sed magna at nunc commodo placerat. Praesent blandit. Nam nulla. Integer pede justo, lacinia eget, tincidunt eget, tempus vel, pede. Morbi porttitor lorem id ligula. Suspendisse ornare consequat lectus. In est risus, auctor sed, tristique in, tempus sit amet, sem. Fusce consequat. Nulla nisl. Nunc nisl.",2016-03-18 02:41:25,2018-10-15 01:39:36
27,Billing,Active,Customer,0 Crest Line Court,,San Antonio,Texas,78210,United States,"Maecenas leo odio, condimentum id, luctus nec, molestie sed, justo. Pellentesque viverra pede ac diam. Cras pellentesque volutpat dui. Maecenas tristique, est et tempus semper, est quam pharetra magna, ac consequat metus sapien ut nunc. Vestibulum ante ipsum primis in faucibus orci luctus et ultrices posuere cubilia Curae; Mauris viverra diam vitae quam. Suspendisse potenti. Nullam porttitor lacus at turpis. Donec posuere metus vitae ipsum. Aliquam non mauris. Morbi non lectus.",2017-02-02 03:17:01,2018-02-13 16:18:12
28,Business,Active,Building,1848 Hoepker Way,,Winston Salem,North Carolina,27116,United States,"Quisque porta volutpat erat. Quisque erat eros, viverra eget, congue eget, semper rutrum, nulla. Nunc purus. Phasellus in felis. Donec semper sapien a libero. Nam dui. Proin leo odio, porttitor id, consequat in, consequat ut, nulla. Sed accumsan felis.",2016-07-31 02:41:16,2019-02-12 09:39:51
29,Billing,Active,Customer,8 Trailsway Parkway,,Dayton,Ohio,45426,United States,"Vestibulum ante ipsum primis in faucibus orci luctus et ultrices posuere cubilia Curae; Duis faucibus accumsan odio. Curabitur convallis. Duis consequat dui nec nisi volutpat eleifend. Donec ut dolor. Morbi vel lectus in quam fringilla rhoncus. Mauris enim leo, rhoncus sed, vestibulum sit amet, cursus id, turpis. Integer aliquet, massa id lobortis convallis, tortor risus dapibus augue, vel accumsan tellus nisi eu orci. Mauris lacinia sapien quis libero.",2016-10-02 10:54:47,2018-09-10 17:53:32
30,Home,Active,Building,0 Redwing Pass,,South Bend,Indiana,46614,United States,"Duis at velit eu est congue elementum. In hac habitasse platea dictumst. Morbi vestibulum, velit id pretium iaculis, diam erat fermentum justo, nec condimentum neque sapien placerat ante. Nulla justo. Aliquam quis turpis eget elit sodales scelerisque. Mauris sit amet eros. Suspendisse accumsan tortor quis turpis. Sed ante. Vivamus tortor. Duis mattis egestas metus.",2016-05-15 05:08:51,2019-02-09 15:37:02
31,Home,Active,Customer,0402 Hermina Court,,Memphis,Tennessee,38168,United States,"Nullam molestie nibh in lectus. Pellentesque at nulla. Suspendisse potenti. Cras in purus eu magna vulputate luctus. Cum sociis natoque penatibus et magnis dis parturient montes, nascetur ridiculus mus. Vivamus vestibulum sagittis sapien. Cum sociis natoque penatibus et magnis dis parturient montes, nascetur ridiculus mus. Etiam vel augue.",2017-04-01 23:28:43,2018-09-13 10:53:21
32,Billing,Active,Building,750 Dryden Hill,,Charlotte,North Carolina,28225,United States,"Integer aliquet, massa id lobortis convallis, tortor risus dapibus augue, vel accumsan tellus nisi eu orci. Mauris lacinia sapien quis libero. Nullam sit amet turpis elementum ligula vehicula consequat. Morbi a ipsum. Integer a nibh. In quis justo.",2016-04-27 16:02:28,2018-11-15 17:34:22
33,Home,Active,Customer,20780 Rusk Terrace,,Washington,District of Columbia,20051,United States,"Pellentesque eget nunc. Donec quis orci eget orci vehicula condimentum. Curabitur in libero ut massa volutpat convallis. Morbi odio odio, elementum eu, interdum eu, tincidunt in, leo. Maecenas pulvinar lobortis est. Phasellus sit amet erat.",2016-06-27 23:45:04,2017-10-21 01:39:44
34,Shipping,Active,Building,5301 Nevada Avenue,18,Dallas,Texas,75379,United States,"Duis at velit eu est congue elementum. In hac habitasse platea dictumst. Morbi vestibulum, velit id pretium iaculis, diam erat fermentum justo, nec condimentum neque sapien placerat ante. Nulla justo. Aliquam quis turpis eget elit sodales scelerisque. Mauris sit amet eros. Suspendisse accumsan tortor quis turpis. Sed ante. Vivamus tortor. Duis mattis egestas metus.",2017-02-20 01:37:26,2018-09-28 06:42:26
35,Shipping,Active,Customer,25 Riverside Court,,Charlotte,North Carolina,28256,United States,"Suspendisse potenti. In eleifend quam a odio. In hac habitasse platea dictumst. Maecenas ut massa quis augue luctus tincidunt. Nulla mollis molestie lorem. Quisque ut erat. Curabitur gravida nisi at nibh. In hac habitasse platea dictumst. Aliquam augue quam, sollicitudin vitae, consectetuer eget, rutrum at, lorem. Integer tincidunt ante vel ipsum.",2017-04-18 21:07:33,2018-03-31 09:15:29
36,Billing,Active,Building,22 Toban Way,,Fort Lauderdale,Florida,33325,United States,"Maecenas leo odio, condimentum id, luctus nec, molestie sed, justo. Pellentesque viverra pede ac diam. Cras pellentesque volutpat dui. Maecenas tristique, est et tempus semper, est quam pharetra magna, ac consequat metus sapien ut nunc. Vestibulum ante ipsum primis in faucibus orci luctus et ultrices posuere cubilia Curae; Mauris viverra diam vitae quam. Suspendisse potenti. Nullam porttitor lacus at turpis.",2016-08-29 19:42:49,2017-06-22 00:14:07
37,Billing,Active,Customer,43 Moland Terrace,,Beaumont,Texas,77705,United States,"Cras in purus eu magna vulputate luctus. Cum sociis natoque penatibus et magnis dis parturient montes, nascetur ridiculus mus. Vivamus vestibulum sagittis sapien. Cum sociis natoque penatibus et magnis dis parturient montes, nascetur ridiculus mus. Etiam vel augue. Vestibulum rutrum rutrum neque. Aenean auctor gravida sem.",2016-10-04 03:41:09,2017-06-22 21:27:00
38,Home,Active,Building,9698 Toban Pass,,Dayton,Ohio,45470,United States,"Proin risus. Praesent lectus. Vestibulum quam sapien, varius ut, blandit non, interdum in, ante. Vestibulum ante ipsum primis in faucibus orci luctus et ultrices posuere cubilia Curae; Duis faucibus accumsan odio. Curabitur convallis. Duis consequat dui nec nisi volutpat eleifend. Donec ut dolor. Morbi vel lectus in quam fringilla rhoncus. Mauris enim leo, rhoncus sed, vestibulum sit amet, cursus id, turpis. Integer aliquet, massa id lobortis convallis, tortor risus dapibus augue, vel accumsan tellus nisi eu orci.",2016-10-14 19:07:57,2018-05-29 13:03:38
39,Business,Active,Customer,5764 Mariners Cove Way,,Los Angeles,California,90030,United States,"Integer aliquet, massa id lobortis convallis, tortor risus dapibus augue, vel accumsan tellus nisi eu orci. Mauris lacinia sapien quis libero. Nullam sit amet turpis elementum ligula vehicula consequat. Morbi a ipsum. Integer a nibh. In quis justo.",2016-11-09 03:46:59,2018-02-05 04:15:02
40,Business,Active,Building,75187 Cardinal Parkway,,Birmingham,Alabama,35210,United States,"Quisque arcu libero, rutrum ac, lobortis vel, dapibus at, diam.",2017-01-13 02:26:47,2018-05-09 18:02:24
41,Home,Active,Customer,01072 Colorado Drive,,New York City,New York,10079,United States,Suspendisse potenti. In eleifend quam a odio. In hac habitasse platea dictumst.,2016-05-04 04:00:16,2017-06-21 08:26:36
42,Shipping,Active,Building,6 Fairfield Parkway,,Mobile,Alabama,36616,United States,"Aliquam augue quam, sollicitudin vitae, consectetuer eget, rutrum at, lorem. Integer tincidunt ante vel ipsum. Praesent blandit lacinia erat. Vestibulum sed magna at nunc commodo placerat. Praesent blandit. Nam nulla. Integer pede justo, lacinia eget, tincidunt eget, tempus vel, pede. Morbi porttitor lorem id ligula. Suspendisse ornare consequat lectus.",2017-02-22 10:49:22,2017-07-18 10:32:51
43,Shipping,Active,Customer,9784 Hazelcrest Lane,,Portland,Oregon,97229,United States,"Pellentesque at nulla. Suspendisse potenti. Cras in purus eu magna vulputate luctus. Cum sociis natoque penatibus et magnis dis parturient montes, nascetur ridiculus mus. Vivamus vestibulum sagittis sapien. Cum sociis natoque penatibus et magnis dis parturient montes, nascetur ridiculus mus. Etiam vel augue. Vestibulum rutrum rutrum neque. Aenean auctor gravida sem. Praesent id massa id nisl venenatis lacinia.",2017-02-14 07:41:18,2019-02-26 21:56:46
44,Shipping,Active,Building,186 Quincy Avenue,,White Plains,New York,10606,United States,"Vivamus vestibulum sagittis sapien. Cum sociis natoque penatibus et magnis dis parturient montes, nascetur ridiculus mus. Etiam vel augue.",2016-09-02 23:41:23,2017-11-26 07:51:37
45,Home,Active,Customer,1 Reindahl Alley,,San Antonio,Texas,78205,United States,"Morbi non quam nec dui luctus rutrum. Nulla tellus. In sagittis dui vel nisl. Duis ac nibh. Fusce lacus purus, aliquet at, feugiat non, pretium quis, lectus. Suspendisse potenti. In eleifend quam a odio. In hac habitasse platea dictumst. Maecenas ut massa quis augue luctus tincidunt. Nulla mollis molestie lorem.",2016-04-15 06:10:17,2019-02-21 06:14:58
46,Billing,Active,Building,42 Havey Avenue,,Boston,Massachusetts,02163,United States,"Donec vitae nisi. Nam ultrices, libero non mattis pulvinar, nulla pede ullamcorper augue, a suscipit nulla elit ac nulla. Sed vel enim sit amet nunc viverra dapibus. Nulla suscipit ligula in lacus. Curabitur at ipsum ac tellus semper interdum. Mauris ullamcorper purus sit amet nulla. Quisque arcu libero, rutrum ac, lobortis vel, dapibus at, diam.",2016-09-23 23:20:50,2018-12-26 09:25:42
47,Home,Active,Customer,944 Scofield Alley,,El Paso,Texas,88546,United States,"Nulla ac enim. In tempor, turpis nec euismod scelerisque, quam turpis adipiscing lorem, vitae mattis nibh ligula nec sem. Duis aliquam convallis nunc. Proin at turpis a pede posuere nonummy. Integer non velit.",2016-10-25 14:00:23,2019-02-13 09:16:38
48,Business,Active,Building,38 Mallard Hill,,Galveston,Texas,77554,United States,In eleifend quam a odio. In hac habitasse platea dictumst. Maecenas ut massa quis augue luctus tincidunt. Nulla mollis molestie lorem. Quisque ut erat. Curabitur gravida nisi at nibh. In hac habitasse platea dictumst.,2016-12-17 09:21:51,2018-04-29 11:09:07
49,Business,Active,Customer,31608 Northwestern Circle,,Nashville,Tennessee,37235,United States,In hac habitasse platea dictumst. Etiam faucibus cursus urna. Ut tellus. Nulla ut erat id mauris vulputate elementum. Nullam varius.,2017-04-17 20:17:54,2018-11-10 18:13:03
50,Home,Active,Building,858 New Castle Road,,Charleston,West Virginia,25389,United States,Duis consequat dui nec nisi volutpat eleifend.,2017-05-21 18:01:24,2018-07-25 14:11:43
51,Business,Active,Customer,5198 Ruskin Center,,Lubbock,Texas,79491,United States,"Quisque erat eros, viverra eget, congue eget, semper rutrum, nulla. Nunc purus. Phasellus in felis. Donec semper sapien a libero. Nam dui. Proin leo odio, porttitor id, consequat in, consequat ut, nulla. Sed accumsan felis. Ut at dolor quis odio consequat varius.",2016-05-11 08:46:42,2017-09-16 11:01:45
52,Shipping,Active,Building,7 Elgar Lane,,Indianapolis,Indiana,46247,United States,"Suspendisse potenti. Cras in purus eu magna vulputate luctus. Cum sociis natoque penatibus et magnis dis parturient montes, nascetur ridiculus mus.",2017-02-27 14:03:47,2018-04-26 18:31:49
53,Business,Active,Customer,1 Bluestem Way,5,Carol Stream,Illinois,60158,United States,Etiam vel augue. Vestibulum rutrum rutrum neque. Aenean auctor gravida sem.,2017-04-05 04:40:47,2018-02-22 04:03:08
54,Home,Active,Building,339 Blaine Park,,Dallas,Texas,75323,United States,"Cum sociis natoque penatibus et magnis dis parturient montes, nascetur ridiculus mus. Etiam vel augue. Vestibulum rutrum rutrum neque. Aenean auctor gravida sem. Praesent id massa id nisl venenatis lacinia. Aenean sit amet justo. Morbi ut odio.",2016-04-23 14:31:07,2018-09-03 07:47:05
55,Shipping,Active,Customer,67 High Crossing Park,2,Inglewood,California,90305,United States,"Vestibulum rutrum rutrum neque. Aenean auctor gravida sem. Praesent id massa id nisl venenatis lacinia. Aenean sit amet justo. Morbi ut odio. Cras mi pede, malesuada in, imperdiet et, commodo vulputate, justo. In blandit ultrices enim. Lorem ipsum dolor sit amet, consectetuer adipiscing elit. Proin interdum mauris non ligula pellentesque ultrices. Phasellus id sapien in sapien iaculis congue.",2016-07-03 20:24:33,2017-09-27 07:03:45
56,Home,Active,Building,3267 Golden Leaf Junction,,Cedar Rapids,Iowa,52410,United States,Vestibulum ante ipsum primis in faucibus orci luctus et ultrices posuere cubilia Curae; Nulla dapibus dolor vel est.,2016-11-03 20:29:34,2018-09-13 19:21:04
57,Billing,Active,Customer,769 Monterey Court,,San Antonio,Texas,78225,United States,"Morbi ut odio. Cras mi pede, malesuada in, imperdiet et, commodo vulputate, justo. In blandit ultrices enim. Lorem ipsum dolor sit amet, consectetuer adipiscing elit.",2016-09-11 07:16:38,2017-12-18 20:30:12
58,Shipping,Active,Building,1 Garrison Lane,,Las Vegas,Nevada,89140,United States,"Integer ac neque. Duis bibendum. Morbi non quam nec dui luctus rutrum. Nulla tellus. In sagittis dui vel nisl. Duis ac nibh. Fusce lacus purus, aliquet at, feugiat non, pretium quis, lectus. Suspendisse potenti. In eleifend quam a odio. In hac habitasse platea dictumst.",2016-12-02 01:56:51,2019-03-04 15:21:33
59,Home,Active,Customer,06569 Jenifer Center,7,Charleston,South Carolina,29403,United States,"Donec semper sapien a libero. Nam dui. Proin leo odio, porttitor id, consequat in, consequat ut, nulla.",2016-11-17 02:35:43,2018-09-08 10:23:26
60,Billing,Active,Building,3 Bunting Point,,Tallahassee,Florida,32314,United States,Mauris sit amet eros. Suspendisse accumsan tortor quis turpis.,2016-12-02 11:37:59,2018-12-01 00:57:52
61,Business,Active,Customer,99 Fair Oaks Plaza,,Pasadena,California,91117,United States,Nunc nisl.,2017-04-27 04:06:11,2018-03-09 21:04:24
62,Billing,Active,Building,0 Sunfield Road,,Sacramento,California,94250,United States,"Vivamus vel nulla eget eros elementum pellentesque. Quisque porta volutpat erat. Quisque erat eros, viverra eget, congue eget, semper rutrum, nulla.",2016-06-17 20:59:26,2017-10-13 14:06:41
63,Home,Active,Customer,3 Stephen Alley,,Washington,District of Columbia,20299,United States,"Proin at turpis a pede posuere nonummy. Integer non velit. Donec diam neque, vestibulum eget, vulputate ut, ultrices vel, augue. Vestibulum ante ipsum primis in faucibus orci luctus et ultrices posuere cubilia Curae; Donec pharetra, magna vestibulum aliquet ultrices, erat tortor sollicitudin mi, sit amet lobortis sapien sapien non mi. Integer ac neque. Duis bibendum. Morbi non quam nec dui luctus rutrum.",2017-01-24 08:51:10,2018-07-31 20:02:36
64,Home,Active,Building,8 Moland Point,,Arlington,Texas,76011,United States,"Duis at velit eu est congue elementum. In hac habitasse platea dictumst. Morbi vestibulum, velit id pretium iaculis, diam erat fermentum justo, nec condimentum neque sapien placerat ante. Nulla justo.",2016-04-15 13:26:58,2019-01-01 16:52:59
65,Business,Active,Customer,4 Emmet Junction,17,Newport Beach,California,92662,United States,Integer tincidunt ante vel ipsum. Praesent blandit lacinia erat. Vestibulum sed magna at nunc commodo placerat. Praesent blandit.,2016-11-18 14:26:45,2017-08-04 13:51:58
66,Billing,Active,Building,273 Novick Lane,,Los Angeles,California,90189,United States,"Duis bibendum, felis sed interdum venenatis, turpis enim blandit mi, in porttitor pede justo eu massa. Donec dapibus.",2017-01-30 15:46:06,2019-02-13 04:06:59
67,Business,Active,Customer,50755 Waxwing Parkway,,San Antonio,Texas,78225,United States,"In est risus, auctor sed, tristique in, tempus sit amet, sem. Fusce consequat. Nulla nisl. Nunc nisl. Duis bibendum, felis sed interdum venenatis, turpis enim blandit mi, in porttitor pede justo eu massa. Donec dapibus.",2017-04-19 13:39:45,2018-06-19 17:14:24
68,Home,Active,Building,464 Meadow Vale Crossing,5,Miami,Florida,33129,United States,"Nullam porttitor lacus at turpis. Donec posuere metus vitae ipsum. Aliquam non mauris. Morbi non lectus. Aliquam sit amet diam in magna bibendum imperdiet. Nullam orci pede, venenatis non, sodales sed, tincidunt eu, felis. Fusce posuere felis sed lacus. Morbi sem mauris, laoreet ut, rhoncus aliquet, pulvinar sed, nisl. Nunc rhoncus dui vel sem. Sed sagittis.",2017-05-17 03:28:38,2018-09-04 19:19:13
69,Home,Active,Customer,360 Bonner Street,6,Oxnard,California,93034,United States,"Vestibulum ac est lacinia nisi venenatis tristique. Fusce congue, diam id ornare imperdiet, sapien urna pretium nisl, ut volutpat sapien arcu sed augue. Aliquam erat volutpat. In congue. Etiam justo. Etiam pretium iaculis justo. In hac habitasse platea dictumst. Etiam faucibus cursus urna. Ut tellus.",2016-05-14 04:23:29,2019-01-06 10:24:47
70,Billing,Active,Building,6797 Oxford Center,,Jackson,Mississippi,39216,United States,Cras in purus eu magna vulputate luctus.,2016-11-25 12:15:45,2018-03-22 21:27:23
71,Home,Active,Customer,556 Hintze Park,18,Pueblo,Colorado,81010,United States,Ut at dolor quis odio consequat varius. Integer ac leo. Pellentesque ultrices mattis odio. Donec vitae nisi.,2017-06-11 06:37:29,2018-12-05 11:49:20
72,Home,Active,Building,60804 Helena Park,,Montgomery,Alabama,36109,United States,Curabitur convallis. Duis consequat dui nec nisi volutpat eleifend. Donec ut dolor. Morbi vel lectus in quam fringilla rhoncus.,2016-10-13 08:25:30,2017-10-24 13:53:17
73,Billing,Active,Customer,464 Hanover Street,,Oklahoma City,Oklahoma,73157,United States,Cras non velit nec nisi vulputate nonummy. Maecenas tincidunt lacus at velit. Vivamus vel nulla eget eros elementum pellentesque. Quisque porta volutpat erat.,2017-03-26 06:18:44,2017-08-30 13:00:12
74,Shipping,Active,Building,3202 Northport Court,,New York City,New York,10110,United States,Duis ac nibh.,2016-05-15 21:03:50,2017-06-21 06:44:55
75,Business,Active,Customer,69 Longview Pass,,Huntsville,Alabama,35805,United States,"Pellentesque ultrices mattis odio. Donec vitae nisi. Nam ultrices, libero non mattis pulvinar, nulla pede ullamcorper augue, a suscipit nulla elit ac nulla. Sed vel enim sit amet nunc viverra dapibus. Nulla suscipit ligula in lacus. Curabitur at ipsum ac tellus semper interdum. Mauris ullamcorper purus sit amet nulla. Quisque arcu libero, rutrum ac, lobortis vel, dapibus at, diam. Nam tristique tortor eu pede.",2016-09-02 18:28:30,2018-06-29 05:10:58
76,Home,Active,Building,11831 Goodland Hill,9,Los Angeles,California,90065,United States,"Pellentesque eget nunc. Donec quis orci eget orci vehicula condimentum. Curabitur in libero ut massa volutpat convallis. Morbi odio odio, elementum eu, interdum eu, tincidunt in, leo. Maecenas pulvinar lobortis est. Phasellus sit amet erat. Nulla tempus.",2016-04-07 22:47:58,2018-07-05 10:03:00
77,Home,Active,Customer,59598 Ludington Hill,,Greenville,South Carolina,29605,United States,Nulla justo. Aliquam quis turpis eget elit sodales scelerisque. Mauris sit amet eros. Suspendisse accumsan tortor quis turpis. Sed ante.,2017-06-06 20:37:35,2017-07-31 17:33:53
78,Shipping,Active,Building,09298 Riverside Road,11,Huntington,West Virginia,25775,United States,"Vestibulum ante ipsum primis in faucibus orci luctus et ultrices posuere cubilia Curae; Donec pharetra, magna vestibulum aliquet ultrices, erat tortor sollicitudin mi, sit amet lobortis sapien sapien non mi.",2017-06-06 14:28:26,2017-06-14 08:38:55
79,Home,Active,Customer,01 Commercial Terrace,,Saint Paul,Minnesota,55123,United States,Nunc purus.,2017-04-25 11:31:59,2017-10-09 20:14:41
80,Business,Active,Building,646 Clove Lane,,New York City,New York,10034,United States,"Praesent blandit. Nam nulla. Integer pede justo, lacinia eget, tincidunt eget, tempus vel, pede. Morbi porttitor lorem id ligula. Suspendisse ornare consequat lectus. In est risus, auctor sed, tristique in, tempus sit amet, sem. Fusce consequat. Nulla nisl. Nunc nisl. Duis bibendum, felis sed interdum venenatis, turpis enim blandit mi, in porttitor pede justo eu massa.",2016-11-21 14:15:29,2018-04-12 15:12:48
81,Shipping,Active,Customer,18 Buell Point,,Baltimore,Maryland,21239,United States,Quisque porta volutpat erat.,2016-04-12 01:29:56,2019-02-07 22:41:56
82,Shipping,Active,Building,119 Toban Terrace,,New York City,New York,10099,United States,Vivamus vel nulla eget eros elementum pellentesque. Quisque porta volutpat erat.,2017-06-01 14:23:14,2017-11-08 21:24:18
83,Home,Active,Customer,75 Bobwhite Trail,,San Jose,California,95155,United States,Nulla mollis molestie lorem. Quisque ut erat. Curabitur gravida nisi at nibh.,2017-02-23 00:47:30,2018-02-22 04:56:01
84,Business,Active,Building,11334 Merrick Junction,,Reading,Pennsylvania,19610,United States,"Morbi non lectus. Aliquam sit amet diam in magna bibendum imperdiet. Nullam orci pede, venenatis non, sodales sed, tincidunt eu, felis. Fusce posuere felis sed lacus. Morbi sem mauris, laoreet ut, rhoncus aliquet, pulvinar sed, nisl. Nunc rhoncus dui vel sem. Sed sagittis. Nam congue, risus semper porta volutpat, quam pede lobortis ligula, sit amet eleifend pede libero quis orci. Nullam molestie nibh in lectus.",2016-11-13 03:59:10,2018-07-27 08:19:47
85,Home,Active,Customer,2278 Rockefeller Drive,,San Jose,California,95108,United States,"Praesent lectus. Vestibulum quam sapien, varius ut, blandit non, interdum in, ante. Vestibulum ante ipsum primis in faucibus orci luctus et ultrices posuere cubilia Curae; Duis faucibus accumsan odio. Curabitur convallis.",2016-09-30 16:40:49,2019-01-13 22:39:16
86,Shipping,Active,Building,91564 Warner Road,,Bethlehem,Pennsylvania,18018,United States,"In quis justo. Maecenas rhoncus aliquam lacus. Morbi quis tortor id nulla ultrices aliquet. Maecenas leo odio, condimentum id, luctus nec, molestie sed, justo. Pellentesque viverra pede ac diam. Cras pellentesque volutpat dui. Maecenas tristique, est et tempus semper, est quam pharetra magna, ac consequat metus sapien ut nunc. Vestibulum ante ipsum primis in faucibus orci luctus et ultrices posuere cubilia Curae; Mauris viverra diam vitae quam. Suspendisse potenti.",2016-09-21 03:30:49,2018-07-06 06:34:00
87,Home,Active,Customer,8579 Kings Lane,19,Baton Rouge,Louisiana,70883,United States,"Curabitur in libero ut massa volutpat convallis. Morbi odio odio, elementum eu, interdum eu, tincidunt in, leo. Maecenas pulvinar lobortis est. Phasellus sit amet erat. Nulla tempus. Vivamus in felis eu sapien cursus vestibulum. Proin eu mi.",2016-10-21 00:31:58,2017-10-11 20:12:25
88,Shipping,Active,Building,94420 Waywood Park,,Shawnee Mission,Kansas,66210,United States,"Cras mi pede, malesuada in, imperdiet et, commodo vulputate, justo. In blandit ultrices enim. Lorem ipsum dolor sit amet, consectetuer adipiscing elit.",2017-01-14 11:25:57,2017-12-15 01:17:13
89,Shipping,Active,Customer,60265 Blaine Way,,Pueblo,Colorado,81010,United States,"Duis consequat dui nec nisi volutpat eleifend. Donec ut dolor. Morbi vel lectus in quam fringilla rhoncus. Mauris enim leo, rhoncus sed, vestibulum sit amet, cursus id, turpis.",2016-07-04 06:59:36,2019-02-24 00:49:08
90,Business,Active,Building,5419 Truax Parkway,,Knoxville,Tennessee,37914,United States,Duis mattis egestas metus. Aenean fermentum. Donec ut mauris eget massa tempor convallis.,2016-12-14 06:53:01,2018-09-14 20:09:48
91,Billing,Active,Customer,7029 Mayfield Center,,Columbus,Mississippi,39705,United States,Sed vel enim sit amet nunc viverra dapibus. Nulla suscipit ligula in lacus. Curabitur at ipsum ac tellus semper interdum.,2017-04-12 23:13:21,2018-06-08 01:34:59
92,Business,Active,Building,6 Anzinger Point,11,Athens,Georgia,30610,United States,"Duis aliquam convallis nunc. Proin at turpis a pede posuere nonummy. Integer non velit. Donec diam neque, vestibulum eget, vulputate ut, ultrices vel, augue.",2016-04-17 09:45:42,2017-08-12 11:31:08
93,Business,Active,Customer,7218 Anhalt Circle,,New Orleans,Louisiana,70160,United States,Aenean sit amet justo. Morbi ut odio.,2017-04-25 07:17:09,2017-08-25 14:37:22
94,Home,Active,Building,56849 Fairview Point,,San Francisco,California,94154,United States,Vestibulum ante ipsum primis in faucibus orci luctus et ultrices posuere cubilia Curae; Duis faucibus accumsan odio. Curabitur convallis. Duis consequat dui nec nisi volutpat eleifend. Donec ut dolor. Morbi vel lectus in quam fringilla rhoncus.,2016-08-07 15:38:53,2018-12-20 15:44:54
95,Home,Active,Customer,011 Express Lane,,Birmingham,Alabama,35242,United States,Nullam varius. Nulla facilisi. Cras non velit nec nisi vulputate nonummy. Maecenas tincidunt lacus at velit. Vivamus vel nulla eget eros elementum pellentesque. Quisque porta volutpat erat.,2017-03-29 15:45:32,2018-05-31 11:52:33
96,Shipping,Active,Building,37 Calypso Court,9,Whittier,California,90605,United States,"Fusce congue, diam id ornare imperdiet, sapien urna pretium nisl, ut volutpat sapien arcu sed augue. Aliquam erat volutpat. In congue. Etiam justo. Etiam pretium iaculis justo. In hac habitasse platea dictumst.",2017-03-05 04:30:40,2018-12-19 15:45:51
97,Home,Active,Customer,04066 Glendale Avenue,,Tacoma,Washington,98424,United States,"In quis justo. Maecenas rhoncus aliquam lacus. Morbi quis tortor id nulla ultrices aliquet. Maecenas leo odio, condimentum id, luctus nec, molestie sed, justo.",2016-06-03 18:49:50,2018-11-26 20:22:22
98,Business,Active,Building,6066 Tomscot Pass,,Saint Joseph,Missouri,64504,United States,"Vestibulum rutrum rutrum neque. Aenean auctor gravida sem. Praesent id massa id nisl venenatis lacinia. Aenean sit amet justo. Morbi ut odio. Cras mi pede, malesuada in, imperdiet et, commodo vulputate, justo. In blandit ultrices enim. Lorem ipsum dolor sit amet, consectetuer adipiscing elit. Proin interdum mauris non ligula pellentesque ultrices.",2016-11-21 19:00:07,2018-02-12 09:30:29
99,Shipping,Active,Customer,03 Fuller Street,,Sandy,Utah,84093,United States,"Aliquam augue quam, sollicitudin vitae, consectetuer eget, rutrum at, lorem. Integer tincidunt ante vel ipsum. Praesent blandit lacinia erat. Vestibulum sed magna at nunc commodo placerat. Praesent blandit. Nam nulla. Integer pede justo, lacinia eget, tincidunt eget, tempus vel, pede. Morbi porttitor lorem id ligula.",2017-06-04 15:09:58,2018-07-24 04:06:18
100,Billing,Active,Building,800 Atwood Center,,Mobile,Alabama,36616,United States,"In hac habitasse platea dictumst. Morbi vestibulum, velit id pretium iaculis, diam erat fermentum justo, nec condimentum neque sapien placerat ante. Nulla justo. Aliquam quis turpis eget elit sodales scelerisque. Mauris sit amet eros. Suspendisse accumsan tortor quis turpis. Sed ante. Vivamus tortor. Duis mattis egestas metus. Aenean fermentum.",2017-02-07 13:19:40,2018-05-15 03:29:33
101,Business,Active,Customer,4059 Redwing Way,,Nashville,Tennessee,37220,United States,"Pellentesque eget nunc. Donec quis orci eget orci vehicula condimentum. Curabitur in libero ut massa volutpat convallis. Morbi odio odio, elementum eu, interdum eu, tincidunt in, leo. Maecenas pulvinar lobortis est. Phasellus sit amet erat. Nulla tempus. Vivamus in felis eu sapien cursus vestibulum.",2016-09-14 04:27:23,2018-11-03 03:17:56
102,Business,Active,Building,4 Eliot Lane,,Birmingham,Alabama,35285,United States,"Maecenas tincidunt lacus at velit. Vivamus vel nulla eget eros elementum pellentesque. Quisque porta volutpat erat. Quisque erat eros, viverra eget, congue eget, semper rutrum, nulla. Nunc purus. Phasellus in felis.",2017-04-15 08:15:28,2018-02-04 08:58:38
103,Home,Active,Customer,53 Starling Junction,,Tempe,Arizona,85284,United States,"Vivamus vestibulum sagittis sapien. Cum sociis natoque penatibus et magnis dis parturient montes, nascetur ridiculus mus. Etiam vel augue. Vestibulum rutrum rutrum neque. Aenean auctor gravida sem. Praesent id massa id nisl venenatis lacinia.",2016-09-26 02:54:56,2018-07-14 07:17:36
104,Business,Active,Building,23866 Old Shore Parkway,,Staten Island,New York,10305,United States,Vestibulum rutrum rutrum neque. Aenean auctor gravida sem. Praesent id massa id nisl venenatis lacinia. Aenean sit amet justo.,2016-10-30 08:08:58,2019-03-11 09:03:52
105,Shipping,Active,Customer,25 Leroy Pass,5,Little Rock,Arkansas,72215,United States,"Integer ac leo. Pellentesque ultrices mattis odio. Donec vitae nisi. Nam ultrices, libero non mattis pulvinar, nulla pede ullamcorper augue, a suscipit nulla elit ac nulla. Sed vel enim sit amet nunc viverra dapibus. Nulla suscipit ligula in lacus. Curabitur at ipsum ac tellus semper interdum.",2016-11-20 02:45:28,2017-07-29 04:56:34
106,Shipping,Active,Building,76279 Mendota Place,,Boise,Idaho,83732,United States,"Nullam sit amet turpis elementum ligula vehicula consequat. Morbi a ipsum. Integer a nibh. In quis justo. Maecenas rhoncus aliquam lacus. Morbi quis tortor id nulla ultrices aliquet. Maecenas leo odio, condimentum id, luctus nec, molestie sed, justo. Pellentesque viverra pede ac diam. Cras pellentesque volutpat dui. Maecenas tristique, est et tempus semper, est quam pharetra magna, ac consequat metus sapien ut nunc.",2016-06-25 04:26:05,2017-08-25 05:56:06
107,Home,Active,Customer,2 John Wall Park,,Dallas,Texas,75387,United States,"Integer ac leo. Pellentesque ultrices mattis odio. Donec vitae nisi. Nam ultrices, libero non mattis pulvinar, nulla pede ullamcorper augue, a suscipit nulla elit ac nulla. Sed vel enim sit amet nunc viverra dapibus. Nulla suscipit ligula in lacus. Curabitur at ipsum ac tellus semper interdum. Mauris ullamcorper purus sit amet nulla.",2016-08-01 13:03:20,2018-02-14 11:58:12
108,Home,Active,Building,2254 Chinook Crossing,,Erie,Pennsylvania,16510,United States,"Fusce lacus purus, aliquet at, feugiat non, pretium quis, lectus. Suspendisse potenti. In eleifend quam a odio. In hac habitasse platea dictumst. Maecenas ut massa quis augue luctus tincidunt. Nulla mollis molestie lorem. Quisque ut erat. Curabitur gravida nisi at nibh.",2016-05-10 22:32:06,2018-06-10 06:31:31
109,Home,Active,Customer,7488 Independence Circle,,Atlanta,Georgia,31136,United States,"Praesent blandit. Nam nulla. Integer pede justo, lacinia eget, tincidunt eget, tempus vel, pede. Morbi porttitor lorem id ligula. Suspendisse ornare consequat lectus. In est risus, auctor sed, tristique in, tempus sit amet, sem. Fusce consequat. Nulla nisl. Nunc nisl.",2016-10-26 21:02:33,2017-09-25 23:37:25
110,Billing,Active,Building,7656 Ilene Lane,10,Naples,Florida,33961,United States,Etiam pretium iaculis justo. In hac habitasse platea dictumst. Etiam faucibus cursus urna. Ut tellus. Nulla ut erat id mauris vulputate elementum. Nullam varius. Nulla facilisi. Cras non velit nec nisi vulputate nonummy. Maecenas tincidunt lacus at velit.,2016-04-08 02:03:34,2017-10-05 22:02:26
111,Business,Active,Customer,54526 Twin Pines Avenue,,Charlotte,North Carolina,28210,United States,Morbi vel lectus in quam fringilla rhoncus.,2016-11-20 00:51:31,2018-08-11 11:18:28
112,Business,Active,Building,28 Bay Circle,,Gainesville,Florida,32627,United States,"Etiam faucibus cursus urna. Ut tellus. Nulla ut erat id mauris vulputate elementum. Nullam varius. Nulla facilisi. Cras non velit nec nisi vulputate nonummy. Maecenas tincidunt lacus at velit. Vivamus vel nulla eget eros elementum pellentesque. Quisque porta volutpat erat. Quisque erat eros, viverra eget, congue eget, semper rutrum, nulla.",2017-02-01 06:08:29,2017-07-10 15:53:08
113,Shipping,Active,Customer,20271 Burning Wood Way,,Valley Forge,Pennsylvania,19495,United States,"Maecenas ut massa quis augue luctus tincidunt. Nulla mollis molestie lorem. Quisque ut erat. Curabitur gravida nisi at nibh. In hac habitasse platea dictumst. Aliquam augue quam, sollicitudin vitae, consectetuer eget, rutrum at, lorem. Integer tincidunt ante vel ipsum.",2016-10-01 10:46:25,2019-01-01 20:37:01
114,Shipping,Active,Building,5 Kings Street,,Miami,Florida,33147,United States,"Donec semper sapien a libero. Nam dui. Proin leo odio, porttitor id, consequat in, consequat ut, nulla. Sed accumsan felis. Ut at dolor quis odio consequat varius. Integer ac leo.",2017-01-17 04:48:18,2018-09-13 02:09:59
115,Business,Active,Customer,9 Montana Street,4,Largo,Florida,33777,United States,"Suspendisse ornare consequat lectus. In est risus, auctor sed, tristique in, tempus sit amet, sem. Fusce consequat. Nulla nisl. Nunc nisl. Duis bibendum, felis sed interdum venenatis, turpis enim blandit mi, in porttitor pede justo eu massa. Donec dapibus.",2016-04-09 04:39:16,2019-01-16 02:06:26
116,Billing,Active,Building,8 Emmet Street,,Los Angeles,California,90025,United States,Morbi non quam nec dui luctus rutrum. Nulla tellus.,2017-03-11 04:24:35,2018-07-17 16:57:45
117,Billing,Active,Customer,7791 Melody Way,17,Bronx,New York,10459,United States,"Aliquam sit amet diam in magna bibendum imperdiet. Nullam orci pede, venenatis non, sodales sed, tincidunt eu, felis. Fusce posuere felis sed lacus. Morbi sem mauris, laoreet ut, rhoncus aliquet, pulvinar sed, nisl. Nunc rhoncus dui vel sem. Sed sagittis. Nam congue, risus semper porta volutpat, quam pede lobortis ligula, sit amet eleifend pede libero quis orci. Nullam molestie nibh in lectus.",2016-08-13 07:44:21,2019-02-16 03:47:50
118,Home,Active,Building,56218 Orin Court,,El Paso,Texas,88541,United States,"Vestibulum rutrum rutrum neque. Aenean auctor gravida sem. Praesent id massa id nisl venenatis lacinia. Aenean sit amet justo. Morbi ut odio. Cras mi pede, malesuada in, imperdiet et, commodo vulputate, justo. In blandit ultrices enim. Lorem ipsum dolor sit amet, consectetuer adipiscing elit. Proin interdum mauris non ligula pellentesque ultrices. Phasellus id sapien in sapien iaculis congue.",2016-04-05 07:01:12,2018-04-21 22:43:05
119,Home,Active,Customer,10322 Badeau Hill,,New York City,New York,10009,United States,Praesent blandit lacinia erat. Vestibulum sed magna at nunc commodo placerat.,2017-02-11 18:42:49,2018-01-12 03:21:36
120,Business,Active,Building,571 Hooker Hill,,Nashville,Tennessee,37210,United States,"Cras pellentesque volutpat dui. Maecenas tristique, est et tempus semper, est quam pharetra magna, ac consequat metus sapien ut nunc. Vestibulum ante ipsum primis in faucibus orci luctus et ultrices posuere cubilia Curae; Mauris viverra diam vitae quam. Suspendisse potenti. Nullam porttitor lacus at turpis. Donec posuere metus vitae ipsum.",2016-11-14 06:22:24,2019-02-18 22:53:37
121,Business,Active,Customer,0 Green Ridge Place,,Hamilton,Ohio,45020,United States,Mauris sit amet eros. Suspendisse accumsan tortor quis turpis. Sed ante. Vivamus tortor. Duis mattis egestas metus. Aenean fermentum. Donec ut mauris eget massa tempor convallis.,2017-04-22 20:20:31,2017-12-11 16:43:11
122,Billing,Active,Building,48595 Mesta Circle,14,Reno,Nevada,89510,United States,"Proin risus. Praesent lectus. Vestibulum quam sapien, varius ut, blandit non, interdum in, ante.",2017-04-28 08:16:15,2018-12-14 21:38:10
123,Business,Active,Customer,385 Blackbird Way,,Farmington,Michigan,48335,United States,"Nam congue, risus semper porta volutpat, quam pede lobortis ligula, sit amet eleifend pede libero quis orci. Nullam molestie nibh in lectus. Pellentesque at nulla. Suspendisse potenti. Cras in purus eu magna vulputate luctus.",2016-03-22 18:12:49,2017-11-01 07:38:47
124,Home,Active,Building,263 Pearson Hill,19,Phoenix,Arizona,85067,United States,"Quisque id justo sit amet sapien dignissim vestibulum. Vestibulum ante ipsum primis in faucibus orci luctus et ultrices posuere cubilia Curae; Nulla dapibus dolor vel est. Donec odio justo, sollicitudin ut, suscipit a, feugiat et, eros. Vestibulum ac est lacinia nisi venenatis tristique. Fusce congue, diam id ornare imperdiet, sapien urna pretium nisl, ut volutpat sapien arcu sed augue. Aliquam erat volutpat. In congue.",2016-11-22 15:49:59,2019-01-12 15:07:01
125,Home,Active,Customer,64762 Wayridge Terrace,,Pittsburgh,Pennsylvania,15250,United States,Mauris ullamcorper purus sit amet nulla.,2016-10-02 23:13:08,2018-11-13 00:14:58
126,Home,Active,Building,969 Eagle Crest Circle,,San Francisco,California,94137,United States,"Maecenas rhoncus aliquam lacus. Morbi quis tortor id nulla ultrices aliquet. Maecenas leo odio, condimentum id, luctus nec, molestie sed, justo. Pellentesque viverra pede ac diam.",2016-09-01 23:36:50,2018-11-15 09:37:00
127,Home,Active,Customer,6 Dovetail Pass,,Madison,Wisconsin,53716,United States,Suspendisse accumsan tortor quis turpis. Sed ante.,2016-10-07 02:57:40,2018-10-02 15:01:16
128,Shipping,Active,Building,5773 Warbler Park,,Washington,District of Columbia,20260,United States,"Donec diam neque, vestibulum eget, vulputate ut, ultrices vel, augue. Vestibulum ante ipsum primis in faucibus orci luctus et ultrices posuere cubilia Curae; Donec pharetra, magna vestibulum aliquet ultrices, erat tortor sollicitudin mi, sit amet lobortis sapien sapien non mi.",2016-07-01 01:17:54,2017-06-23 00:27:25
129,Business,Active,Customer,86 School Drive,3,Arlington,Virginia,22234,United States,"Fusce lacus purus, aliquet at, feugiat non, pretium quis, lectus. Suspendisse potenti.",2016-07-18 01:22:05,2017-06-22 23:19:42
130,Shipping,Active,Building,538 Delaware Circle,,Lexington,Kentucky,40576,United States,"Phasellus id sapien in sapien iaculis congue. Vivamus metus arcu, adipiscing molestie, hendrerit at, vulputate vitae, nisl. Aenean lectus. Pellentesque eget nunc. Donec quis orci eget orci vehicula condimentum. Curabitur in libero ut massa volutpat convallis. Morbi odio odio, elementum eu, interdum eu, tincidunt in, leo.",2016-07-18 19:57:24,2018-03-09 21:23:50
131,Business,Active,Customer,35803 4th Alley,,San Antonio,Texas,78285,United States,"Mauris enim leo, rhoncus sed, vestibulum sit amet, cursus id, turpis. Integer aliquet, massa id lobortis convallis, tortor risus dapibus augue, vel accumsan tellus nisi eu orci. Mauris lacinia sapien quis libero.",2017-01-31 05:11:17,2018-11-13 15:25:23
132,Shipping,Active,Building,38739 Bay Plaza,20,Phoenix,Arizona,85072,United States,"Donec dapibus. Duis at velit eu est congue elementum. In hac habitasse platea dictumst. Morbi vestibulum, velit id pretium iaculis, diam erat fermentum justo, nec condimentum neque sapien placerat ante. Nulla justo. Aliquam quis turpis eget elit sodales scelerisque.",2017-01-14 14:43:55,2017-12-05 08:20:04
133,Home,Active,Customer,4 Brentwood Crossing,,Seattle,Washington,98175,United States,"Pellentesque ultrices mattis odio. Donec vitae nisi. Nam ultrices, libero non mattis pulvinar, nulla pede ullamcorper augue, a suscipit nulla elit ac nulla. Sed vel enim sit amet nunc viverra dapibus. Nulla suscipit ligula in lacus. Curabitur at ipsum ac tellus semper interdum. Mauris ullamcorper purus sit amet nulla.",2016-07-26 04:51:40,2018-04-04 09:39:58
134,Business,Active,Building,924 Hallows Crossing,,Escondido,California,92030,United States,"Nulla ut erat id mauris vulputate elementum. Nullam varius. Nulla facilisi. Cras non velit nec nisi vulputate nonummy. Maecenas tincidunt lacus at velit. Vivamus vel nulla eget eros elementum pellentesque. Quisque porta volutpat erat. Quisque erat eros, viverra eget, congue eget, semper rutrum, nulla. Nunc purus.",2017-03-16 05:52:16,2017-12-18 07:08:38
135,Business,Active,Customer,30 Becker Park,,Richmond,Virginia,23289,United States,Vestibulum ante ipsum primis in faucibus orci luctus et ultrices posuere cubilia Curae; Duis faucibus accumsan odio. Curabitur convallis.,2016-03-23 21:52:04,2017-09-21 04:02:28
136,Billing,Active,Building,68764 Oakridge Drive,,Portland,Oregon,97271,United States,"Vestibulum ante ipsum primis in faucibus orci luctus et ultrices posuere cubilia Curae; Mauris viverra diam vitae quam. Suspendisse potenti. Nullam porttitor lacus at turpis. Donec posuere metus vitae ipsum. Aliquam non mauris. Morbi non lectus. Aliquam sit amet diam in magna bibendum imperdiet. Nullam orci pede, venenatis non, sodales sed, tincidunt eu, felis.",2016-11-22 15:45:40,2017-11-13 06:32:42
137,Shipping,Active,Customer,9 Basil Lane,17,Englewood,Colorado,80150,United States,In hac habitasse platea dictumst.,2016-06-23 22:43:26,2017-09-08 15:47:59
138,Business,Active,Building,3673 Dexter Parkway,15,Young America,Minnesota,55573,United States,"Morbi porttitor lorem id ligula. Suspendisse ornare consequat lectus. In est risus, auctor sed, tristique in, tempus sit amet, sem. Fusce consequat. Nulla nisl. Nunc nisl. Duis bibendum, felis sed interdum venenatis, turpis enim blandit mi, in porttitor pede justo eu massa. Donec dapibus. Duis at velit eu est congue elementum. In hac habitasse platea dictumst.",2016-10-17 11:45:40,2017-09-30 11:26:29
139,Billing,Active,Customer,0 Waywood Court,,Green Bay,Wisconsin,54313,United States,"Curabitur convallis. Duis consequat dui nec nisi volutpat eleifend. Donec ut dolor. Morbi vel lectus in quam fringilla rhoncus. Mauris enim leo, rhoncus sed, vestibulum sit amet, cursus id, turpis. Integer aliquet, massa id lobortis convallis, tortor risus dapibus augue, vel accumsan tellus nisi eu orci. Mauris lacinia sapien quis libero. Nullam sit amet turpis elementum ligula vehicula consequat. Morbi a ipsum.",2016-05-07 10:27:55,2017-09-15 03:56:38
140,Home,Active,Building,5 Lakeland Way,13,Tampa,Florida,33694,United States,"Sed ante. Vivamus tortor. Duis mattis egestas metus. Aenean fermentum. Donec ut mauris eget massa tempor convallis. Nulla neque libero, convallis eget, eleifend luctus, ultricies eu, nibh. Quisque id justo sit amet sapien dignissim vestibulum. Vestibulum ante ipsum primis in faucibus orci luctus et ultrices posuere cubilia Curae; Nulla dapibus dolor vel est. Donec odio justo, sollicitudin ut, suscipit a, feugiat et, eros. Vestibulum ac est lacinia nisi venenatis tristique.",2016-07-23 20:12:43,2018-12-25 11:32:34
141,Shipping,Active,Customer,132 Harper Alley,,El Paso,Texas,88546,United States,Nulla facilisi. Cras non velit nec nisi vulputate nonummy. Maecenas tincidunt lacus at velit. Vivamus vel nulla eget eros elementum pellentesque. Quisque porta volutpat erat.,2017-01-03 11:15:20,2019-02-20 01:28:21
142,Shipping,Active,Building,5 Raven Court,13,Madison,Wisconsin,53716,United States,"In tempor, turpis nec euismod scelerisque, quam turpis adipiscing lorem, vitae mattis nibh ligula nec sem. Duis aliquam convallis nunc. Proin at turpis a pede posuere nonummy. Integer non velit. Donec diam neque, vestibulum eget, vulputate ut, ultrices vel, augue. Vestibulum ante ipsum primis in faucibus orci luctus et ultrices posuere cubilia Curae; Donec pharetra, magna vestibulum aliquet ultrices, erat tortor sollicitudin mi, sit amet lobortis sapien sapien non mi. Integer ac neque. Duis bibendum.",2017-05-26 21:14:41,2018-07-18 00:07:24
143,Billing,Active,Customer,8488 Gerald Pass,7,Stockton,California,95210,United States,Aenean fermentum.,2016-05-05 22:06:36,2017-08-08 17:17:42
144,Billing,Active,Building,6 Thompson Place,,Rochester,New York,14646,United States,"Vestibulum ante ipsum primis in faucibus orci luctus et ultrices posuere cubilia Curae; Donec pharetra, magna vestibulum aliquet ultrices, erat tortor sollicitudin mi, sit amet lobortis sapien sapien non mi.",2016-08-28 05:32:52,2018-01-10 02:56:07
145,Shipping,Active,Customer,911 Scofield Place,,Bronx,New York,10464,United States,Maecenas pulvinar lobortis est.,2017-05-19 11:23:51,2018-10-21 12:15:03
146,Home,Active,Building,34 Leroy Hill,17,Corpus Christi,Texas,78475,United States,Aliquam erat volutpat. In congue. Etiam justo. Etiam pretium iaculis justo. In hac habitasse platea dictumst. Etiam faucibus cursus urna. Ut tellus. Nulla ut erat id mauris vulputate elementum. Nullam varius.,2017-03-08 20:39:23,2018-06-18 18:17:18
147,Home,Active,Customer,0 Twin Pines Junction,,Rochester,New York,14609,United States,"Donec vitae nisi. Nam ultrices, libero non mattis pulvinar, nulla pede ullamcorper augue, a suscipit nulla elit ac nulla. Sed vel enim sit amet nunc viverra dapibus. Nulla suscipit ligula in lacus. Curabitur at ipsum ac tellus semper interdum. Mauris ullamcorper purus sit amet nulla. Quisque arcu libero, rutrum ac, lobortis vel, dapibus at, diam.",2017-06-12 14:31:52,2019-02-06 23:08:04
148,Home,Active,Building,4 Lindbergh Pass,10,West Palm Beach,Florida,33411,United States,"Pellentesque at nulla. Suspendisse potenti. Cras in purus eu magna vulputate luctus. Cum sociis natoque penatibus et magnis dis parturient montes, nascetur ridiculus mus. Vivamus vestibulum sagittis sapien. Cum sociis natoque penatibus et magnis dis parturient montes, nascetur ridiculus mus.",2016-09-06 03:02:05,2017-08-28 13:16:35
149,Billing,Active,Customer,3482 Packers Way,,San Luis Obispo,California,93407,United States,Sed ante. Vivamus tortor. Duis mattis egestas metus. Aenean fermentum. Donec ut mauris eget massa tempor convallis.,2017-03-30 21:27:54,2017-08-17 11:46:05
150,Business,Active,Building,7 Surrey Park,,Atlanta,Georgia,30316,United States,"Proin risus. Praesent lectus. Vestibulum quam sapien, varius ut, blandit non, interdum in, ante. Vestibulum ante ipsum primis in faucibus orci luctus et ultrices posuere cubilia Curae; Duis faucibus accumsan odio. Curabitur convallis.",2016-09-30 05:54:37,2018-02-17 01:14:11
151,Shipping,Active,Customer,763 Johnson Lane,,Houston,Texas,77065,United States,"Aliquam quis turpis eget elit sodales scelerisque. Mauris sit amet eros. Suspendisse accumsan tortor quis turpis. Sed ante. Vivamus tortor. Duis mattis egestas metus. Aenean fermentum. Donec ut mauris eget massa tempor convallis. Nulla neque libero, convallis eget, eleifend luctus, ultricies eu, nibh.",2016-12-30 05:29:24,2018-01-15 15:29:10
152,Business,Active,Building,44735 Mcguire Circle,,Ocala,Florida,34479,United States,Integer ac neque. Duis bibendum.,2016-03-14 02:20:24,2019-02-06 23:17:34
153,Shipping,Active,Customer,94377 Dixon Parkway,4,Dayton,Ohio,45408,United States,"Integer non velit. Donec diam neque, vestibulum eget, vulputate ut, ultrices vel, augue. Vestibulum ante ipsum primis in faucibus orci luctus et ultrices posuere cubilia Curae; Donec pharetra, magna vestibulum aliquet ultrices, erat tortor sollicitudin mi, sit amet lobortis sapien sapien non mi. Integer ac neque. Duis bibendum. Morbi non quam nec dui luctus rutrum. Nulla tellus. In sagittis dui vel nisl.",2016-03-18 03:27:14,2018-03-10 05:34:06
154,Shipping,Active,Building,2 Ridgeview Court,,Sioux Falls,South Dakota,57193,United States,"Morbi vestibulum, velit id pretium iaculis, diam erat fermentum justo, nec condimentum neque sapien placerat ante. Nulla justo. Aliquam quis turpis eget elit sodales scelerisque. Mauris sit amet eros. Suspendisse accumsan tortor quis turpis. Sed ante. Vivamus tortor. Duis mattis egestas metus.",2016-10-30 05:39:55,2018-02-25 09:40:12
155,Home,Active,Customer,0558 Tennessee Lane,18,Tucson,Arizona,85754,United States,"Nulla facilisi. Cras non velit nec nisi vulputate nonummy. Maecenas tincidunt lacus at velit. Vivamus vel nulla eget eros elementum pellentesque. Quisque porta volutpat erat. Quisque erat eros, viverra eget, congue eget, semper rutrum, nulla. Nunc purus. Phasellus in felis. Donec semper sapien a libero. Nam dui.",2016-05-26 18:30:39,2019-03-01 02:44:59
156,Shipping,Active,Building,93 Burrows Hill,,Baton Rouge,Louisiana,70826,United States,"Donec semper sapien a libero. Nam dui. Proin leo odio, porttitor id, consequat in, consequat ut, nulla. Sed accumsan felis.",2016-11-06 07:09:07,2018-03-13 05:37:39
157,Home,Active,Customer,78 Waubesa Avenue,,Cincinnati,Ohio,45228,United States,"Morbi sem mauris, laoreet ut, rhoncus aliquet, pulvinar sed, nisl. Nunc rhoncus dui vel sem. Sed sagittis. Nam congue, risus semper porta volutpat, quam pede lobortis ligula, sit amet eleifend pede libero quis orci.",2017-01-17 22:43:46,2018-06-23 12:36:08
158,Shipping,Active,Building,4086 Moulton Terrace,19,Wilmington,North Carolina,28410,United States,Morbi non quam nec dui luctus rutrum. Nulla tellus. In sagittis dui vel nisl. Duis ac nibh.,2016-07-18 23:35:54,2017-07-28 16:27:00
159,Home,Active,Customer,9 Caliangt Road,,Phoenix,Arizona,85010,United States,"Nulla nisl. Nunc nisl. Duis bibendum, felis sed interdum venenatis, turpis enim blandit mi, in porttitor pede justo eu massa. Donec dapibus.",2016-10-19 09:50:55,2018-12-14 08:08:55
160,Billing,Active,Building,69935 Cottonwood Parkway,,Apache Junction,Arizona,85219,United States,"Quisque ut erat. Curabitur gravida nisi at nibh. In hac habitasse platea dictumst. Aliquam augue quam, sollicitudin vitae, consectetuer eget, rutrum at, lorem. Integer tincidunt ante vel ipsum. Praesent blandit lacinia erat. Vestibulum sed magna at nunc commodo placerat.",2016-07-11 06:29:33,2018-09-01 19:41:44
161,Billing,Active,Customer,38978 Coolidge Alley,,Huntsville,Alabama,35810,United States,"Vivamus vestibulum sagittis sapien. Cum sociis natoque penatibus et magnis dis parturient montes, nascetur ridiculus mus. Etiam vel augue. Vestibulum rutrum rutrum neque. Aenean auctor gravida sem. Praesent id massa id nisl venenatis lacinia. Aenean sit amet justo. Morbi ut odio. Cras mi pede, malesuada in, imperdiet et, commodo vulputate, justo.",2017-01-03 07:59:18,2017-09-08 05:25:40
162,Billing,Active,Building,40071 Fair Oaks Lane,,Las Vegas,Nevada,89155,United States,"Nulla tellus. In sagittis dui vel nisl. Duis ac nibh. Fusce lacus purus, aliquet at, feugiat non, pretium quis, lectus. Suspendisse potenti. In eleifend quam a odio. In hac habitasse platea dictumst. Maecenas ut massa quis augue luctus tincidunt.",2017-04-09 01:44:25,2017-08-03 06:48:30
163,Billing,Active,Customer,24312 Manitowish Road,,Washington,District of Columbia,20599,United States,"Nullam orci pede, venenatis non, sodales sed, tincidunt eu, felis. Fusce posuere felis sed lacus. Morbi sem mauris, laoreet ut, rhoncus aliquet, pulvinar sed, nisl. Nunc rhoncus dui vel sem. Sed sagittis. Nam congue, risus semper porta volutpat, quam pede lobortis ligula, sit amet eleifend pede libero quis orci. Nullam molestie nibh in lectus. Pellentesque at nulla. Suspendisse potenti. Cras in purus eu magna vulputate luctus.",2017-01-06 03:59:13,2018-06-16 23:49:33
164,Home,Active,Building,6934 Sunnyside Center,,Kansas City,Missouri,64193,United States,Duis mattis egestas metus.,2017-03-20 19:14:36,2017-08-09 11:32:02
165,Home,Active,Customer,4 Sunfield Plaza,,Anaheim,California,92805,United States,"Vestibulum sed magna at nunc commodo placerat. Praesent blandit. Nam nulla. Integer pede justo, lacinia eget, tincidunt eget, tempus vel, pede. Morbi porttitor lorem id ligula. Suspendisse ornare consequat lectus. In est risus, auctor sed, tristique in, tempus sit amet, sem. Fusce consequat. Nulla nisl.",2016-07-01 17:13:15,2018-02-28 22:43:03
166,Business,Active,Building,12536 Hoard Lane,11,Austin,Texas,78721,United States,"In est risus, auctor sed, tristique in, tempus sit amet, sem. Fusce consequat.",2017-04-16 18:01:47,2017-12-12 17:11:28
167,Home,Active,Customer,72381 Moland Street,16,Colorado Springs,Colorado,80995,United States,"Mauris ullamcorper purus sit amet nulla. Quisque arcu libero, rutrum ac, lobortis vel, dapibus at, diam.",2016-03-21 06:57:52,2017-06-28 16:41:08
168,Billing,Active,Building,031 Forest Run Hill,,Cleveland,Ohio,44130,United States,"Maecenas rhoncus aliquam lacus. Morbi quis tortor id nulla ultrices aliquet. Maecenas leo odio, condimentum id, luctus nec, molestie sed, justo. Pellentesque viverra pede ac diam. Cras pellentesque volutpat dui. Maecenas tristique, est et tempus semper, est quam pharetra magna, ac consequat metus sapien ut nunc. Vestibulum ante ipsum primis in faucibus orci luctus et ultrices posuere cubilia Curae; Mauris viverra diam vitae quam.",2017-06-05 03:43:33,2017-09-15 20:43:07
169,Billing,Active,Customer,7 Judy Plaza,,Mobile,Alabama,36622,United States,"Nam dui. Proin leo odio, porttitor id, consequat in, consequat ut, nulla. Sed accumsan felis. Ut at dolor quis odio consequat varius. Integer ac leo. Pellentesque ultrices mattis odio. Donec vitae nisi. Nam ultrices, libero non mattis pulvinar, nulla pede ullamcorper augue, a suscipit nulla elit ac nulla.",2016-04-02 03:59:20,2017-11-25 01:40:47
170,Billing,Active,Building,40769 Starling Road,,Detroit,Michigan,48295,United States,Nullam sit amet turpis elementum ligula vehicula consequat. Morbi a ipsum. Integer a nibh. In quis justo.,2016-10-23 11:53:15,2017-11-15 18:41:28
171,Shipping,Active,Customer,658 Fisk Avenue,11,Garland,Texas,75049,United States,"Cum sociis natoque penatibus et magnis dis parturient montes, nascetur ridiculus mus. Vivamus vestibulum sagittis sapien. Cum sociis natoque penatibus et magnis dis parturient montes, nascetur ridiculus mus.",2016-12-10 03:23:38,2018-11-15 09:00:47
172,Home,Active,Building,46456 Packers Junction,,Rochester,New York,14683,United States,"In est risus, auctor sed, tristique in, tempus sit amet, sem. Fusce consequat. Nulla nisl. Nunc nisl. Duis bibendum, felis sed interdum venenatis, turpis enim blandit mi, in porttitor pede justo eu massa. Donec dapibus. Duis at velit eu est congue elementum. In hac habitasse platea dictumst. Morbi vestibulum, velit id pretium iaculis, diam erat fermentum justo, nec condimentum neque sapien placerat ante.",2017-04-10 15:18:34,2017-07-09 01:58:00
173,Home,Active,Customer,735 Haas Lane,14,Albuquerque,New Mexico,87190,United States,In eleifend quam a odio. In hac habitasse platea dictumst. Maecenas ut massa quis augue luctus tincidunt. Nulla mollis molestie lorem. Quisque ut erat.,2016-12-24 02:09:11,2018-08-16 21:32:15
174,Shipping,Active,Building,2 Birchwood Street,,Dallas,Texas,75241,United States,"Fusce congue, diam id ornare imperdiet, sapien urna pretium nisl, ut volutpat sapien arcu sed augue. Aliquam erat volutpat. In congue. Etiam justo. Etiam pretium iaculis justo. In hac habitasse platea dictumst.",2016-07-03 21:51:46,2017-12-07 21:02:29
175,Home,Active,Customer,58 Arrowood Alley,,Charlotte,North Carolina,28299,United States,"Proin leo odio, porttitor id, consequat in, consequat ut, nulla. Sed accumsan felis. Ut at dolor quis odio consequat varius.",2016-12-02 19:21:10,2017-07-26 13:49:21
176,Shipping,Active,Building,953 Swallow Drive,,Orlando,Florida,32854,United States,"Aliquam augue quam, sollicitudin vitae, consectetuer eget, rutrum at, lorem.",2016-06-15 05:16:27,2017-07-18 00:25:52
177,Shipping,Active,Customer,47875 Sloan Plaza,,Sioux Falls,South Dakota,57105,United States,"Phasellus in felis. Donec semper sapien a libero. Nam dui. Proin leo odio, porttitor id, consequat in, consequat ut, nulla. Sed accumsan felis. Ut at dolor quis odio consequat varius. Integer ac leo. Pellentesque ultrices mattis odio.",2016-05-16 20:53:09,2018-01-29 11:06:59
178,Shipping,Active,Building,68282 Spohn Place,13,Berkeley,California,94712,United States,"Nam nulla. Integer pede justo, lacinia eget, tincidunt eget, tempus vel, pede. Morbi porttitor lorem id ligula. Suspendisse ornare consequat lectus. In est risus, auctor sed, tristique in, tempus sit amet, sem.",2017-01-03 14:56:02,2018-03-02 00:10:58
179,Business,Active,Customer,6293 Charing Cross Parkway,8,San Diego,California,92153,United States,Suspendisse accumsan tortor quis turpis. Sed ante. Vivamus tortor. Duis mattis egestas metus. Aenean fermentum.,2016-06-30 03:00:24,2017-10-07 16:19:47
180,Business,Active,Building,195 Ruskin Trail,,Scottsdale,Arizona,85255,United States,"Aliquam sit amet diam in magna bibendum imperdiet. Nullam orci pede, venenatis non, sodales sed, tincidunt eu, felis. Fusce posuere felis sed lacus. Morbi sem mauris, laoreet ut, rhoncus aliquet, pulvinar sed, nisl. Nunc rhoncus dui vel sem. Sed sagittis. Nam congue, risus semper porta volutpat, quam pede lobortis ligula, sit amet eleifend pede libero quis orci. Nullam molestie nibh in lectus. Pellentesque at nulla.",2017-02-03 16:59:08,2018-05-08 10:46:27
181,Business,Active,Customer,71341 Starling Crossing,,Stockton,California,95298,United States,"Vivamus in felis eu sapien cursus vestibulum. Proin eu mi. Nulla ac enim. In tempor, turpis nec euismod scelerisque, quam turpis adipiscing lorem, vitae mattis nibh ligula nec sem. Duis aliquam convallis nunc. Proin at turpis a pede posuere nonummy. Integer non velit. Donec diam neque, vestibulum eget, vulputate ut, ultrices vel, augue.",2017-01-24 12:43:17,2017-07-24 12:08:14
182,Shipping,Active,Building,521 Hintze Park,,Boise,Idaho,83727,United States,"Nulla tempus. Vivamus in felis eu sapien cursus vestibulum. Proin eu mi. Nulla ac enim. In tempor, turpis nec euismod scelerisque, quam turpis adipiscing lorem, vitae mattis nibh ligula nec sem. Duis aliquam convallis nunc. Proin at turpis a pede posuere nonummy. Integer non velit. Donec diam neque, vestibulum eget, vulputate ut, ultrices vel, augue. Vestibulum ante ipsum primis in faucibus orci luctus et ultrices posuere cubilia Curae; Donec pharetra, magna vestibulum aliquet ultrices, erat tortor sollicitudin mi, sit amet lobortis sapien sapien non mi.",2017-06-04 02:21:40,2018-07-08 18:27:14
183,Billing,Active,Customer,6314 Spohn Court,,Atlanta,Georgia,31119,United States,Sed sagittis.,2016-07-27 15:13:17,2018-12-23 11:13:33
184,Billing,Active,Building,843 Barby Center,,Memphis,Tennessee,38104,United States,"Praesent blandit lacinia erat. Vestibulum sed magna at nunc commodo placerat. Praesent blandit. Nam nulla. Integer pede justo, lacinia eget, tincidunt eget, tempus vel, pede.",2016-12-20 19:41:19,2019-01-06 16:54:38
185,Business,Active,Customer,45 Bunker Hill Pass,,Charleston,West Virginia,25331,United States,Vestibulum rutrum rutrum neque. Aenean auctor gravida sem. Praesent id massa id nisl venenatis lacinia. Aenean sit amet justo.,2016-07-18 11:08:20,2017-08-25 22:45:06
186,Home,Active,Building,6869 Continental Parkway,,Santa Barbara,California,93111,United States,"Lorem ipsum dolor sit amet, consectetuer adipiscing elit. Proin interdum mauris non ligula pellentesque ultrices. Phasellus id sapien in sapien iaculis congue. Vivamus metus arcu, adipiscing molestie, hendrerit at, vulputate vitae, nisl.",2017-05-25 17:20:55,2017-07-12 11:57:57
187,Business,Active,Customer,0 Longview Plaza,,Wichita,Kansas,67215,United States,Nullam varius. Nulla facilisi. Cras non velit nec nisi vulputate nonummy. Maecenas tincidunt lacus at velit. Vivamus vel nulla eget eros elementum pellentesque. Quisque porta volutpat erat.,2016-07-31 01:54:49,2018-05-19 10:58:15
188,Shipping,Active,Building,08 Pearson Alley,,Amarillo,Texas,79182,United States,"Nulla tempus. Vivamus in felis eu sapien cursus vestibulum. Proin eu mi. Nulla ac enim. In tempor, turpis nec euismod scelerisque, quam turpis adipiscing lorem, vitae mattis nibh ligula nec sem.",2016-10-07 09:58:52,2018-12-29 11:22:37
189,Home,Active,Customer,42 Maywood Plaza,7,Springfield,Illinois,62776,United States,"Integer tincidunt ante vel ipsum. Praesent blandit lacinia erat. Vestibulum sed magna at nunc commodo placerat. Praesent blandit. Nam nulla. Integer pede justo, lacinia eget, tincidunt eget, tempus vel, pede. Morbi porttitor lorem id ligula. Suspendisse ornare consequat lectus. In est risus, auctor sed, tristique in, tempus sit amet, sem. Fusce consequat.",2016-12-22 06:45:20,2018-03-31 23:25:16
190,Billing,Active,Building,96943 Ruskin Park,,Ocala,Florida,34479,United States,"Curabitur in libero ut massa volutpat convallis. Morbi odio odio, elementum eu, interdum eu, tincidunt in, leo. Maecenas pulvinar lobortis est. Phasellus sit amet erat. Nulla tempus. Vivamus in felis eu sapien cursus vestibulum. Proin eu mi. Nulla ac enim.",2016-05-11 19:29:17,2018-02-01 02:05:29
191,Shipping,Active,Customer,34764 Jay Crossing,,Washington,District of Columbia,20397,United States,"Proin risus. Praesent lectus. Vestibulum quam sapien, varius ut, blandit non, interdum in, ante. Vestibulum ante ipsum primis in faucibus orci luctus et ultrices posuere cubilia Curae; Duis faucibus accumsan odio. Curabitur convallis. Duis consequat dui nec nisi volutpat eleifend. Donec ut dolor. Morbi vel lectus in quam fringilla rhoncus. Mauris enim leo, rhoncus sed, vestibulum sit amet, cursus id, turpis.",2016-10-23 19:50:14,2019-01-20 04:20:18
192,Business,Active,Building,55981 Chinook Pass,,San Jose,California,95138,United States,"Duis bibendum, felis sed interdum venenatis, turpis enim blandit mi, in porttitor pede justo eu massa. Donec dapibus. Duis at velit eu est congue elementum.",2016-03-24 01:12:47,2018-01-26 04:51:20
193,Business,Active,Customer,830 Arizona Place,,Daytona Beach,Florida,32123,United States,In eleifend quam a odio. In hac habitasse platea dictumst.,2016-06-15 03:26:50,2018-06-04 08:31:32
194,Billing,Active,Building,2664 Bashford Point,,Chicago,Illinois,60641,United States,"Duis mattis egestas metus. Aenean fermentum. Donec ut mauris eget massa tempor convallis. Nulla neque libero, convallis eget, eleifend luctus, ultricies eu, nibh. Quisque id justo sit amet sapien dignissim vestibulum. Vestibulum ante ipsum primis in faucibus orci luctus et ultrices posuere cubilia Curae; Nulla dapibus dolor vel est. Donec odio justo, sollicitudin ut, suscipit a, feugiat et, eros. Vestibulum ac est lacinia nisi venenatis tristique.",2017-06-04 21:43:50,2018-08-29 15:49:12
195,Shipping,Active,Customer,8283 Anhalt Trail,2,Lynn,Massachusetts,01905,United States,"Vestibulum ante ipsum primis in faucibus orci luctus et ultrices posuere cubilia Curae; Nulla dapibus dolor vel est. Donec odio justo, sollicitudin ut, suscipit a, feugiat et, eros. Vestibulum ac est lacinia nisi venenatis tristique. Fusce congue, diam id ornare imperdiet, sapien urna pretium nisl, ut volutpat sapien arcu sed augue. Aliquam erat volutpat.",2017-03-26 18:31:41,2017-12-05 23:29:03
196,Billing,Active,Building,3 Roth Drive,,Los Angeles,California,90010,United States,"Vestibulum quam sapien, varius ut, blandit non, interdum in, ante. Vestibulum ante ipsum primis in faucibus orci luctus et ultrices posuere cubilia Curae; Duis faucibus accumsan odio.",2017-02-04 21:24:42,2018-12-20 04:27:41
197,Billing,Active,Customer,794 Sunbrook Park,,Sioux City,Iowa,51110,United States,Etiam pretium iaculis justo. In hac habitasse platea dictumst. Etiam faucibus cursus urna. Ut tellus. Nulla ut erat id mauris vulputate elementum. Nullam varius. Nulla facilisi. Cras non velit nec nisi vulputate nonummy. Maecenas tincidunt lacus at velit. Vivamus vel nulla eget eros elementum pellentesque.,2017-04-30 19:54:08,2018-10-09 16:02:17
198,Billing,Active,Building,6 Petterle Trail,17,Winston Salem,North Carolina,27110,United States,"In hac habitasse platea dictumst. Morbi vestibulum, velit id pretium iaculis, diam erat fermentum justo, nec condimentum neque sapien placerat ante. Nulla justo. Aliquam quis turpis eget elit sodales scelerisque. Mauris sit amet eros. Suspendisse accumsan tortor quis turpis. Sed ante. Vivamus tortor. Duis mattis egestas metus.",2016-07-06 21:32:57,2018-04-08 02:20:36
199,Home,Active,Customer,12 Packers Hill,,Helena,Montana,59623,United States,Ut tellus. Nulla ut erat id mauris vulputate elementum.,2017-05-15 01:05:27,2018-06-17 00:21:30
200,Home,Active,Building,0 Haas Drive,,Albuquerque,New Mexico,87195,United States,Nulla justo. Aliquam quis turpis eget elit sodales scelerisque. Mauris sit amet eros. Suspendisse accumsan tortor quis turpis.,2016-11-28 17:51:52,2017-09-11 12:00:34
201,Home,Active,Customer,52 Mesta Parkway,,New York City,New York,10034,United States,"Nullam molestie nibh in lectus. Pellentesque at nulla. Suspendisse potenti. Cras in purus eu magna vulputate luctus. Cum sociis natoque penatibus et magnis dis parturient montes, nascetur ridiculus mus.",2017-01-16 17:26:43,2018-10-25 01:01:35
202,Billing,Active,Building,7 Utah Center,,Shawnee Mission,Kansas,66215,United States,"Duis consequat dui nec nisi volutpat eleifend. Donec ut dolor. Morbi vel lectus in quam fringilla rhoncus. Mauris enim leo, rhoncus sed, vestibulum sit amet, cursus id, turpis. Integer aliquet, massa id lobortis convallis, tortor risus dapibus augue, vel accumsan tellus nisi eu orci. Mauris lacinia sapien quis libero.",2016-04-25 08:29:22,2017-08-01 09:56:00
203,Billing,Active,Customer,56 Waxwing Drive,,Erie,Pennsylvania,16534,United States,In congue. Etiam justo. Etiam pretium iaculis justo. In hac habitasse platea dictumst. Etiam faucibus cursus urna. Ut tellus. Nulla ut erat id mauris vulputate elementum. Nullam varius.,2017-03-27 13:33:39,2018-11-29 06:40:40
204,Home,Active,Building,6831 Dayton Trail,,Gastonia,North Carolina,28055,United States,Nunc nisl.,2016-04-29 17:29:06,2018-03-19 20:05:33
205,Home,Active,Customer,503 Paget Lane,,Aurora,Colorado,80045,United States,Ut tellus. Nulla ut erat id mauris vulputate elementum. Nullam varius. Nulla facilisi. Cras non velit nec nisi vulputate nonummy. Maecenas tincidunt lacus at velit. Vivamus vel nulla eget eros elementum pellentesque. Quisque porta volutpat erat.,2016-04-10 06:39:14,2017-12-22 08:55:09
206,Billing,Active,Building,1084 Sunnyside Street,,Flushing,New York,11388,United States,Suspendisse potenti. In eleifend quam a odio. In hac habitasse platea dictumst. Maecenas ut massa quis augue luctus tincidunt. Nulla mollis molestie lorem. Quisque ut erat. Curabitur gravida nisi at nibh.,2016-06-23 17:11:26,2018-12-09 19:05:32
207,Shipping,Active,Customer,37 Wayridge Road,10,Macon,Georgia,31217,United States,"Pellentesque at nulla. Suspendisse potenti. Cras in purus eu magna vulputate luctus. Cum sociis natoque penatibus et magnis dis parturient montes, nascetur ridiculus mus.",2016-06-24 01:52:19,2018-01-26 23:38:28
208,Shipping,Active,Building,6 Talmadge Street,,Tulsa,Oklahoma,74184,United States,"Nullam molestie nibh in lectus. Pellentesque at nulla. Suspendisse potenti. Cras in purus eu magna vulputate luctus. Cum sociis natoque penatibus et magnis dis parturient montes, nascetur ridiculus mus. Vivamus vestibulum sagittis sapien. Cum sociis natoque penatibus et magnis dis parturient montes, nascetur ridiculus mus. Etiam vel augue. Vestibulum rutrum rutrum neque.",2017-03-28 04:31:57,2018-01-01 11:17:59
209,Home,Active,Customer,059 Pennsylvania Hill,,New York City,New York,10170,United States,"Curabitur in libero ut massa volutpat convallis. Morbi odio odio, elementum eu, interdum eu, tincidunt in, leo. Maecenas pulvinar lobortis est.",2016-04-21 20:14:30,2017-10-02 15:31:33
210,Billing,Active,Building,2598 Amoth Place,,Chicago,Illinois,60663,United States,"Aenean sit amet justo. Morbi ut odio. Cras mi pede, malesuada in, imperdiet et, commodo vulputate, justo. In blandit ultrices enim. Lorem ipsum dolor sit amet, consectetuer adipiscing elit. Proin interdum mauris non ligula pellentesque ultrices. Phasellus id sapien in sapien iaculis congue. Vivamus metus arcu, adipiscing molestie, hendrerit at, vulputate vitae, nisl. Aenean lectus.",2016-10-23 11:28:10,2018-12-22 23:33:53
211,Billing,Active,Customer,8 Swallow Plaza,,Lubbock,Texas,79491,United States,"Vivamus metus arcu, adipiscing molestie, hendrerit at, vulputate vitae, nisl. Aenean lectus. Pellentesque eget nunc. Donec quis orci eget orci vehicula condimentum. Curabitur in libero ut massa volutpat convallis. Morbi odio odio, elementum eu, interdum eu, tincidunt in, leo. Maecenas pulvinar lobortis est. Phasellus sit amet erat.",2016-09-25 19:17:04,2018-01-19 16:59:28
212,Business,Active,Building,16321 Laurel Pass,,Sarasota,Florida,34238,United States,"Vestibulum ac est lacinia nisi venenatis tristique. Fusce congue, diam id ornare imperdiet, sapien urna pretium nisl, ut volutpat sapien arcu sed augue. Aliquam erat volutpat. In congue. Etiam justo. Etiam pretium iaculis justo. In hac habitasse platea dictumst. Etiam faucibus cursus urna. Ut tellus.",2017-02-04 02:33:17,2019-01-27 22:43:24
213,Business,Active,Customer,43012 5th Point,9,White Plains,New York,10606,United States,"Maecenas leo odio, condimentum id, luctus nec, molestie sed, justo. Pellentesque viverra pede ac diam. Cras pellentesque volutpat dui. Maecenas tristique, est et tempus semper, est quam pharetra magna, ac consequat metus sapien ut nunc. Vestibulum ante ipsum primis in faucibus orci luctus et ultrices posuere cubilia Curae; Mauris viverra diam vitae quam. Suspendisse potenti. Nullam porttitor lacus at turpis. Donec posuere metus vitae ipsum.",2016-10-02 01:34:36,2017-12-01 14:48:56
214,Business,Active,Building,5 Canary Plaza,,New York City,New York,10099,United States,"Nam congue, risus semper porta volutpat, quam pede lobortis ligula, sit amet eleifend pede libero quis orci.",2017-01-03 19:10:55,2018-06-01 18:11:37
215,Business,Active,Customer,39 Blaine Pass,,Houston,Texas,77218,United States,"Nulla ac enim. In tempor, turpis nec euismod scelerisque, quam turpis adipiscing lorem, vitae mattis nibh ligula nec sem. Duis aliquam convallis nunc. Proin at turpis a pede posuere nonummy.",2017-05-26 22:11:14,2018-12-03 01:28:50
216,Shipping,Active,Building,13207 Ohio Street,4,Odessa,Texas,79764,United States,"Morbi non quam nec dui luctus rutrum. Nulla tellus. In sagittis dui vel nisl. Duis ac nibh. Fusce lacus purus, aliquet at, feugiat non, pretium quis, lectus. Suspendisse potenti. In eleifend quam a odio. In hac habitasse platea dictumst. Maecenas ut massa quis augue luctus tincidunt.",2017-04-17 01:29:52,2018-08-11 20:48:52
217,Home,Active,Customer,121 Katie Avenue,11,North Little Rock,Arkansas,72199,United States,Suspendisse accumsan tortor quis turpis. Sed ante.,2016-06-04 07:46:14,2017-09-18 03:07:20
218,Billing,Active,Building,53132 Independence Center,,Little Rock,Arkansas,72231,United States,"Proin leo odio, porttitor id, consequat in, consequat ut, nulla. Sed accumsan felis. Ut at dolor quis odio consequat varius. Integer ac leo. Pellentesque ultrices mattis odio. Donec vitae nisi. Nam ultrices, libero non mattis pulvinar, nulla pede ullamcorper augue, a suscipit nulla elit ac nulla. Sed vel enim sit amet nunc viverra dapibus. Nulla suscipit ligula in lacus. Curabitur at ipsum ac tellus semper interdum.",2016-04-23 12:47:56,2017-09-09 08:44:06
219,Billing,Active,Customer,5 Becker Street,,Louisville,Kentucky,40287,United States,"Aliquam sit amet diam in magna bibendum imperdiet. Nullam orci pede, venenatis non, sodales sed, tincidunt eu, felis. Fusce posuere felis sed lacus. Morbi sem mauris, laoreet ut, rhoncus aliquet, pulvinar sed, nisl. Nunc rhoncus dui vel sem. Sed sagittis. Nam congue, risus semper porta volutpat, quam pede lobortis ligula, sit amet eleifend pede libero quis orci.",2017-02-20 17:49:22,2018-05-19 18:44:51
220,Business,Active,Building,7270 Straubel Place,,Buffalo,New York,14263,United States,Etiam pretium iaculis justo. In hac habitasse platea dictumst. Etiam faucibus cursus urna. Ut tellus. Nulla ut erat id mauris vulputate elementum. Nullam varius. Nulla facilisi. Cras non velit nec nisi vulputate nonummy.,2017-04-15 07:43:06,2017-12-09 00:28:39
221,Business,Active,Customer,28643 Arapahoe Terrace,,Kalamazoo,Michigan,49048,United States,"Donec semper sapien a libero. Nam dui. Proin leo odio, porttitor id, consequat in, consequat ut, nulla. Sed accumsan felis. Ut at dolor quis odio consequat varius. Integer ac leo. Pellentesque ultrices mattis odio. Donec vitae nisi.",2017-03-08 22:45:29,2018-02-03 15:00:21
222,Shipping,Active,Building,1828 Jackson Way,,Dallas,Texas,75236,United States,"Curabitur gravida nisi at nibh. In hac habitasse platea dictumst. Aliquam augue quam, sollicitudin vitae, consectetuer eget, rutrum at, lorem.",2016-07-31 23:30:11,2017-09-17 14:47:29
223,Shipping,Active,Customer,57 Mosinee Street,,Trenton,New Jersey,08608,United States,Maecenas ut massa quis augue luctus tincidunt. Nulla mollis molestie lorem. Quisque ut erat. Curabitur gravida nisi at nibh. In hac habitasse platea dictumst.,2016-09-05 09:15:27,2017-11-14 07:05:18
224,Home,Active,Building,57 Summit Circle,,Indianapolis,Indiana,46226,United States,"Vestibulum ante ipsum primis in faucibus orci luctus et ultrices posuere cubilia Curae; Nulla dapibus dolor vel est. Donec odio justo, sollicitudin ut, suscipit a, feugiat et, eros. Vestibulum ac est lacinia nisi venenatis tristique. Fusce congue, diam id ornare imperdiet, sapien urna pretium nisl, ut volutpat sapien arcu sed augue. Aliquam erat volutpat. In congue. Etiam justo. Etiam pretium iaculis justo. In hac habitasse platea dictumst. Etiam faucibus cursus urna.",2016-06-11 20:18:01,2018-09-14 14:13:56
225,Billing,Active,Customer,39054 Sycamore Terrace,6,Wilkes Barre,Pennsylvania,18768,United States,"In est risus, auctor sed, tristique in, tempus sit amet, sem. Fusce consequat. Nulla nisl. Nunc nisl. Duis bibendum, felis sed interdum venenatis, turpis enim blandit mi, in porttitor pede justo eu massa. Donec dapibus.",2017-05-20 16:45:03,2018-04-04 21:16:53
226,Billing,Active,Building,71 Aberg Park,12,Chicago,Illinois,60691,United States,"Etiam vel augue. Vestibulum rutrum rutrum neque. Aenean auctor gravida sem. Praesent id massa id nisl venenatis lacinia. Aenean sit amet justo. Morbi ut odio. Cras mi pede, malesuada in, imperdiet et, commodo vulputate, justo. In blandit ultrices enim. Lorem ipsum dolor sit amet, consectetuer adipiscing elit. Proin interdum mauris non ligula pellentesque ultrices.",2016-10-28 16:42:03,2018-01-07 21:33:34
227,Shipping,Active,Customer,16050 Butterfield Circle,,New York City,New York,10150,United States,"Fusce posuere felis sed lacus. Morbi sem mauris, laoreet ut, rhoncus aliquet, pulvinar sed, nisl. Nunc rhoncus dui vel sem. Sed sagittis. Nam congue, risus semper porta volutpat, quam pede lobortis ligula, sit amet eleifend pede libero quis orci. Nullam molestie nibh in lectus. Pellentesque at nulla.",2016-07-19 19:31:05,2018-09-14 08:10:45
228,Shipping,Active,Building,9 Golf Course Alley,,Atlanta,Georgia,31106,United States,"Phasellus id sapien in sapien iaculis congue. Vivamus metus arcu, adipiscing molestie, hendrerit at, vulputate vitae, nisl. Aenean lectus. Pellentesque eget nunc.",2016-03-18 22:40:58,2018-07-18 20:08:44
229,Shipping,Active,Customer,4268 Glacier Hill Crossing,,Boise,Idaho,83716,United States,Integer a nibh.,2017-02-20 13:22:19,2018-04-21 01:01:14
230,Billing,Active,Building,6 Mallory Road,5,Winter Haven,Florida,33884,United States,Nunc nisl.,2016-09-23 14:10:30,2017-06-26 15:43:02
231,Home,Active,Customer,655 Caliangt Avenue,13,Birmingham,Alabama,35295,United States,"Nulla tempus. Vivamus in felis eu sapien cursus vestibulum. Proin eu mi. Nulla ac enim. In tempor, turpis nec euismod scelerisque, quam turpis adipiscing lorem, vitae mattis nibh ligula nec sem. Duis aliquam convallis nunc. Proin at turpis a pede posuere nonummy. Integer non velit. Donec diam neque, vestibulum eget, vulputate ut, ultrices vel, augue.",2017-04-28 07:41:02,2017-12-06 17:10:17
232,Home,Active,Building,7091 Mitchell Hill,5,Washington,District of Columbia,20380,United States,"In sagittis dui vel nisl. Duis ac nibh. Fusce lacus purus, aliquet at, feugiat non, pretium quis, lectus. Suspendisse potenti.",2016-12-10 00:41:20,2017-09-11 21:39:26
233,Business,Active,Customer,13776 Dennis Lane,8,New York City,New York,10165,United States,"Suspendisse ornare consequat lectus. In est risus, auctor sed, tristique in, tempus sit amet, sem. Fusce consequat. Nulla nisl. Nunc nisl. Duis bibendum, felis sed interdum venenatis, turpis enim blandit mi, in porttitor pede justo eu massa. Donec dapibus.",2016-08-22 10:43:33,2018-07-01 19:14:06
234,Shipping,Active,Building,48 Buhler Drive,,Oklahoma City,Oklahoma,73190,United States,"Suspendisse potenti. Nullam porttitor lacus at turpis. Donec posuere metus vitae ipsum. Aliquam non mauris. Morbi non lectus. Aliquam sit amet diam in magna bibendum imperdiet. Nullam orci pede, venenatis non, sodales sed, tincidunt eu, felis. Fusce posuere felis sed lacus. Morbi sem mauris, laoreet ut, rhoncus aliquet, pulvinar sed, nisl.",2017-04-27 03:45:20,2018-06-30 20:53:46
235,Home,Active,Customer,885 4th Court,8,Austin,Texas,78710,United States,"In hac habitasse platea dictumst. Aliquam augue quam, sollicitudin vitae, consectetuer eget, rutrum at, lorem. Integer tincidunt ante vel ipsum.",2016-09-13 13:40:31,2018-10-09 22:13:00
236,Home,Active,Building,2270 Columbus Drive,,Jefferson City,Missouri,65110,United States,"Cras mi pede, malesuada in, imperdiet et, commodo vulputate, justo. In blandit ultrices enim. Lorem ipsum dolor sit amet, consectetuer adipiscing elit. Proin interdum mauris non ligula pellentesque ultrices. Phasellus id sapien in sapien iaculis congue. Vivamus metus arcu, adipiscing molestie, hendrerit at, vulputate vitae, nisl.",2016-03-19 11:00:53,2017-06-17 23:59:24
237,Home,Active,Customer,75868 Corben Circle,,Houston,Texas,77266,United States,Sed accumsan felis. Ut at dolor quis odio consequat varius. Integer ac leo. Pellentesque ultrices mattis odio. Donec vitae nisi.,2017-02-17 01:06:47,2017-11-23 03:49:27
238,Shipping,Active,Building,87514 Warbler Trail,,Van Nuys,California,91406,United States,Donec posuere metus vitae ipsum. Aliquam non mauris. Morbi non lectus. Aliquam sit amet diam in magna bibendum imperdiet.,2016-07-01 02:28:21,2018-08-18 16:14:49
239,Shipping,Active,Customer,10435 Briar Crest Center,,Louisville,Kentucky,40233,United States,"Nulla ac enim. In tempor, turpis nec euismod scelerisque, quam turpis adipiscing lorem, vitae mattis nibh ligula nec sem. Duis aliquam convallis nunc. Proin at turpis a pede posuere nonummy. Integer non velit. Donec diam neque, vestibulum eget, vulputate ut, ultrices vel, augue. Vestibulum ante ipsum primis in faucibus orci luctus et ultrices posuere cubilia Curae; Donec pharetra, magna vestibulum aliquet ultrices, erat tortor sollicitudin mi, sit amet lobortis sapien sapien non mi. Integer ac neque. Duis bibendum.",2017-03-31 12:29:18,2018-01-24 10:56:18
240,Shipping,Active,Building,88573 Eagan Avenue,,Arlington,Texas,76016,United States,"Aenean lectus. Pellentesque eget nunc. Donec quis orci eget orci vehicula condimentum. Curabitur in libero ut massa volutpat convallis. Morbi odio odio, elementum eu, interdum eu, tincidunt in, leo. Maecenas pulvinar lobortis est.",2017-04-25 13:57:03,2018-02-23 15:06:15
241,Home,Active,Customer,11 3rd Drive,,Shreveport,Louisiana,71115,United States,"Vivamus vestibulum sagittis sapien. Cum sociis natoque penatibus et magnis dis parturient montes, nascetur ridiculus mus. Etiam vel augue. Vestibulum rutrum rutrum neque. Aenean auctor gravida sem. Praesent id massa id nisl venenatis lacinia. Aenean sit amet justo. Morbi ut odio.",2016-05-02 12:41:09,2019-03-08 01:54:13
242,Billing,Active,Building,0145 Badeau Road,,Syracuse,New York,13224,United States,"Vestibulum quam sapien, varius ut, blandit non, interdum in, ante. Vestibulum ante ipsum primis in faucibus orci luctus et ultrices posuere cubilia Curae; Duis faucibus accumsan odio. Curabitur convallis. Duis consequat dui nec nisi volutpat eleifend. Donec ut dolor. Morbi vel lectus in quam fringilla rhoncus. Mauris enim leo, rhoncus sed, vestibulum sit amet, cursus id, turpis.",2016-10-05 06:57:32,2018-11-22 01:14:41
243,Home,Active,Customer,725 Mayer Park,3,Decatur,Illinois,62525,United States,Morbi a ipsum. Integer a nibh. In quis justo. Maecenas rhoncus aliquam lacus. Morbi quis tortor id nulla ultrices aliquet.,2016-09-21 01:33:20,2018-02-22 11:12:24
244,Business,Active,Building,904 Fuller Center,,Brooklyn,New York,11231,United States,"Fusce consequat. Nulla nisl. Nunc nisl. Duis bibendum, felis sed interdum venenatis, turpis enim blandit mi, in porttitor pede justo eu massa. Donec dapibus. Duis at velit eu est congue elementum. In hac habitasse platea dictumst.",2017-02-13 03:04:24,2019-02-09 21:12:08
245,Billing,Active,Customer,061 Ridge Oak Alley,7,Portland,Oregon,97211,United States,"Aenean auctor gravida sem. Praesent id massa id nisl venenatis lacinia. Aenean sit amet justo. Morbi ut odio. Cras mi pede, malesuada in, imperdiet et, commodo vulputate, justo. In blandit ultrices enim. Lorem ipsum dolor sit amet, consectetuer adipiscing elit. Proin interdum mauris non ligula pellentesque ultrices. Phasellus id sapien in sapien iaculis congue. Vivamus metus arcu, adipiscing molestie, hendrerit at, vulputate vitae, nisl.",2016-10-19 21:29:16,2017-11-23 21:44:18
246,Home,Active,Building,9365 Commercial Junction,,Birmingham,Alabama,35215,United States,"Phasellus sit amet erat. Nulla tempus. Vivamus in felis eu sapien cursus vestibulum. Proin eu mi. Nulla ac enim. In tempor, turpis nec euismod scelerisque, quam turpis adipiscing lorem, vitae mattis nibh ligula nec sem. Duis aliquam convallis nunc. Proin at turpis a pede posuere nonummy. Integer non velit. Donec diam neque, vestibulum eget, vulputate ut, ultrices vel, augue.",2016-06-13 02:54:00,2018-11-22 22:57:33
247,Billing,Active,Customer,84 Lillian Court,,Sioux Falls,South Dakota,57198,United States,"Duis consequat dui nec nisi volutpat eleifend. Donec ut dolor. Morbi vel lectus in quam fringilla rhoncus. Mauris enim leo, rhoncus sed, vestibulum sit amet, cursus id, turpis. Integer aliquet, massa id lobortis convallis, tortor risus dapibus augue, vel accumsan tellus nisi eu orci. Mauris lacinia sapien quis libero. Nullam sit amet turpis elementum ligula vehicula consequat. Morbi a ipsum. Integer a nibh. In quis justo.",2017-05-11 04:58:17,2019-02-01 19:04:49
248,Billing,Active,Building,46 Melrose Junction,,Reston,Virginia,22096,United States,"Vivamus in felis eu sapien cursus vestibulum. Proin eu mi. Nulla ac enim. In tempor, turpis nec euismod scelerisque, quam turpis adipiscing lorem, vitae mattis nibh ligula nec sem.",2016-03-21 05:27:28,2017-07-02 14:07:18
249,Business,Active,Customer,70364 Bonner Way,,Tallahassee,Florida,32309,United States,"Donec vitae nisi. Nam ultrices, libero non mattis pulvinar, nulla pede ullamcorper augue, a suscipit nulla elit ac nulla. Sed vel enim sit amet nunc viverra dapibus. Nulla suscipit ligula in lacus. Curabitur at ipsum ac tellus semper interdum. Mauris ullamcorper purus sit amet nulla.",2016-10-08 10:20:17,2018-11-05 11:37:31
250,Home,Active,Building,047 Nancy Street,,Garland,Texas,75044,United States,"Cras pellentesque volutpat dui. Maecenas tristique, est et tempus semper, est quam pharetra magna, ac consequat metus sapien ut nunc. Vestibulum ante ipsum primis in faucibus orci luctus et ultrices posuere cubilia Curae; Mauris viverra diam vitae quam. Suspendisse potenti. Nullam porttitor lacus at turpis.",2017-04-28 23:59:44,2018-02-15 17:26:22
251,Home,Active,Customer,462 Schmedeman Parkway,,Chicago,Illinois,60636,United States,"Vivamus tortor. Duis mattis egestas metus. Aenean fermentum. Donec ut mauris eget massa tempor convallis. Nulla neque libero, convallis eget, eleifend luctus, ultricies eu, nibh. Quisque id justo sit amet sapien dignissim vestibulum. Vestibulum ante ipsum primis in faucibus orci luctus et ultrices posuere cubilia Curae; Nulla dapibus dolor vel est. Donec odio justo, sollicitudin ut, suscipit a, feugiat et, eros. Vestibulum ac est lacinia nisi venenatis tristique. Fusce congue, diam id ornare imperdiet, sapien urna pretium nisl, ut volutpat sapien arcu sed augue.",2017-04-19 22:04:40,2018-03-04 02:01:35
252,Billing,Active,Building,6233 Grasskamp Street,14,Denver,Colorado,80228,United States,"Nam congue, risus semper porta volutpat, quam pede lobortis ligula, sit amet eleifend pede libero quis orci.",2017-03-21 23:14:00,2017-10-16 09:54:39
253,Home,Active,Customer,090 Ronald Regan Parkway,,New York City,New York,10039,United States,"Vivamus vestibulum sagittis sapien. Cum sociis natoque penatibus et magnis dis parturient montes, nascetur ridiculus mus. Etiam vel augue. Vestibulum rutrum rutrum neque. Aenean auctor gravida sem. Praesent id massa id nisl venenatis lacinia. Aenean sit amet justo. Morbi ut odio.",2016-06-16 17:15:39,2018-08-18 07:02:45
254,Home,Active,Building,6 International Circle,,Saint Petersburg,Florida,33737,United States,"Nulla ac enim. In tempor, turpis nec euismod scelerisque, quam turpis adipiscing lorem, vitae mattis nibh ligula nec sem. Duis aliquam convallis nunc. Proin at turpis a pede posuere nonummy. Integer non velit. Donec diam neque, vestibulum eget, vulputate ut, ultrices vel, augue. Vestibulum ante ipsum primis in faucibus orci luctus et ultrices posuere cubilia Curae; Donec pharetra, magna vestibulum aliquet ultrices, erat tortor sollicitudin mi, sit amet lobortis sapien sapien non mi. Integer ac neque. Duis bibendum. Morbi non quam nec dui luctus rutrum.",2016-06-13 03:27:35,2017-10-02 04:40:25
255,Shipping,Active,Customer,78 Larry Street,,Louisville,Kentucky,40280,United States,Suspendisse potenti. In eleifend quam a odio. In hac habitasse platea dictumst. Maecenas ut massa quis augue luctus tincidunt. Nulla mollis molestie lorem. Quisque ut erat. Curabitur gravida nisi at nibh. In hac habitasse platea dictumst.,2016-07-14 22:45:42,2017-12-07 00:06:39
256,Shipping,Active,Building,3 Buena Vista Plaza,,Ogden,Utah,84409,United States,"Sed sagittis. Nam congue, risus semper porta volutpat, quam pede lobortis ligula, sit amet eleifend pede libero quis orci. Nullam molestie nibh in lectus. Pellentesque at nulla. Suspendisse potenti. Cras in purus eu magna vulputate luctus.",2016-09-08 06:42:06,2018-12-09 14:37:26
257,Home,Active,Customer,276 Bartillon Place,19,Honolulu,Hawaii,96805,United States,"Nulla mollis molestie lorem. Quisque ut erat. Curabitur gravida nisi at nibh. In hac habitasse platea dictumst. Aliquam augue quam, sollicitudin vitae, consectetuer eget, rutrum at, lorem. Integer tincidunt ante vel ipsum.",2016-04-22 06:06:28,2018-05-02 00:05:13
258,Billing,Active,Building,54486 Cardinal Trail,,Corpus Christi,Texas,78415,United States,Aliquam non mauris. Morbi non lectus. Aliquam sit amet diam in magna bibendum imperdiet.,2017-02-09 10:00:20,2017-07-24 06:01:49
259,Business,Active,Customer,1 Northridge Avenue,,Columbus,Ohio,43204,United States,"Morbi porttitor lorem id ligula. Suspendisse ornare consequat lectus. In est risus, auctor sed, tristique in, tempus sit amet, sem. Fusce consequat. Nulla nisl. Nunc nisl. Duis bibendum, felis sed interdum venenatis, turpis enim blandit mi, in porttitor pede justo eu massa.",2016-06-21 13:02:25,2018-01-15 16:59:41
260,Home,Active,Building,13 Shasta Parkway,9,Young America,Minnesota,55557,United States,Etiam faucibus cursus urna.,2016-09-11 17:40:48,2017-10-22 15:20:17
261,Billing,Active,Customer,97 Prentice Crossing,12,Spartanburg,South Carolina,29305,United States,"Proin risus. Praesent lectus. Vestibulum quam sapien, varius ut, blandit non, interdum in, ante. Vestibulum ante ipsum primis in faucibus orci luctus et ultrices posuere cubilia Curae; Duis faucibus accumsan odio. Curabitur convallis. Duis consequat dui nec nisi volutpat eleifend. Donec ut dolor.",2016-09-04 03:18:06,2018-07-09 21:33:29
262,Home,Active,Building,3 Stuart Plaza,,Washington,District of Columbia,20215,United States,"Aenean fermentum. Donec ut mauris eget massa tempor convallis. Nulla neque libero, convallis eget, eleifend luctus, ultricies eu, nibh. Quisque id justo sit amet sapien dignissim vestibulum. Vestibulum ante ipsum primis in faucibus orci luctus et ultrices posuere cubilia Curae; Nulla dapibus dolor vel est. Donec odio justo, sollicitudin ut, suscipit a, feugiat et, eros. Vestibulum ac est lacinia nisi venenatis tristique.",2016-06-24 14:33:40,2017-06-23 11:18:53
263,Home,Active,Customer,45 Crescent Oaks Pass,,Chicago,Illinois,60669,United States,"Donec dapibus. Duis at velit eu est congue elementum. In hac habitasse platea dictumst. Morbi vestibulum, velit id pretium iaculis, diam erat fermentum justo, nec condimentum neque sapien placerat ante. Nulla justo. Aliquam quis turpis eget elit sodales scelerisque.",2016-08-28 02:57:46,2018-03-20 19:25:24
264,Home,Active,Building,5129 Roth Lane,,Alexandria,Virginia,22301,United States,"Integer tincidunt ante vel ipsum. Praesent blandit lacinia erat. Vestibulum sed magna at nunc commodo placerat. Praesent blandit. Nam nulla. Integer pede justo, lacinia eget, tincidunt eget, tempus vel, pede. Morbi porttitor lorem id ligula. Suspendisse ornare consequat lectus. In est risus, auctor sed, tristique in, tempus sit amet, sem. Fusce consequat.",2016-06-20 02:50:35,2018-11-13 07:16:33
265,Home,Active,Customer,36 Cordelia Way,,Columbus,Ohio,43204,United States,"Sed accumsan felis. Ut at dolor quis odio consequat varius. Integer ac leo. Pellentesque ultrices mattis odio. Donec vitae nisi. Nam ultrices, libero non mattis pulvinar, nulla pede ullamcorper augue, a suscipit nulla elit ac nulla. Sed vel enim sit amet nunc viverra dapibus. Nulla suscipit ligula in lacus.",2016-05-28 19:13:17,2018-02-08 14:42:44
266,Billing,Active,Building,718 Nova Parkway,,Lubbock,Texas,79415,United States,"Vivamus metus arcu, adipiscing molestie, hendrerit at, vulputate vitae, nisl. Aenean lectus. Pellentesque eget nunc. Donec quis orci eget orci vehicula condimentum. Curabitur in libero ut massa volutpat convallis. Morbi odio odio, elementum eu, interdum eu, tincidunt in, leo. Maecenas pulvinar lobortis est. Phasellus sit amet erat. Nulla tempus. Vivamus in felis eu sapien cursus vestibulum.",2017-03-18 05:02:17,2018-02-20 04:31:00
267,Business,Active,Customer,4539 Beilfuss Junction,,Washington,District of Columbia,20231,United States,Mauris sit amet eros.,2017-06-05 01:43:17,2018-10-27 05:46:34
268,Home,Active,Building,69706 Tennyson Street,,Mobile,Alabama,36610,United States,"In hac habitasse platea dictumst. Morbi vestibulum, velit id pretium iaculis, diam erat fermentum justo, nec condimentum neque sapien placerat ante. Nulla justo. Aliquam quis turpis eget elit sodales scelerisque.",2016-04-03 18:21:49,2018-01-09 06:01:52
269,Shipping,Active,Customer,1082 Oneill Court,,Charleston,West Virginia,25389,United States,Etiam justo. Etiam pretium iaculis justo. In hac habitasse platea dictumst.,2016-05-27 06:56:22,2018-02-04 16:32:08
270,Business,Active,Building,231 Clarendon Drive,15,New Bedford,Massachusetts,02745,United States,"Quisque ut erat. Curabitur gravida nisi at nibh. In hac habitasse platea dictumst. Aliquam augue quam, sollicitudin vitae, consectetuer eget, rutrum at, lorem. Integer tincidunt ante vel ipsum. Praesent blandit lacinia erat. Vestibulum sed magna at nunc commodo placerat.",2016-09-28 15:45:04,2017-10-28 05:57:04
271,Home,Active,Customer,76 Sage Drive,,New York City,New York,10155,United States,"Nullam orci pede, venenatis non, sodales sed, tincidunt eu, felis. Fusce posuere felis sed lacus. Morbi sem mauris, laoreet ut, rhoncus aliquet, pulvinar sed, nisl. Nunc rhoncus dui vel sem. Sed sagittis. Nam congue, risus semper porta volutpat, quam pede lobortis ligula, sit amet eleifend pede libero quis orci. Nullam molestie nibh in lectus. Pellentesque at nulla. Suspendisse potenti.",2017-01-17 20:05:32,2017-07-24 00:20:53
272,Billing,Active,Building,22 Dahle Place,,New Haven,Connecticut,06520,United States,"Curabitur convallis. Duis consequat dui nec nisi volutpat eleifend. Donec ut dolor. Morbi vel lectus in quam fringilla rhoncus. Mauris enim leo, rhoncus sed, vestibulum sit amet, cursus id, turpis. Integer aliquet, massa id lobortis convallis, tortor risus dapibus augue, vel accumsan tellus nisi eu orci. Mauris lacinia sapien quis libero.",2016-04-26 18:00:24,2019-02-22 10:42:48
273,Business,Active,Customer,9 Ronald Regan Park,,Spring,Texas,77388,United States,Vestibulum rutrum rutrum neque.,2016-09-16 13:18:22,2018-03-20 12:37:51
274,Shipping,Active,Building,5 Ohio Pass,,North Las Vegas,Nevada,89036,United States,"Pellentesque eget nunc. Donec quis orci eget orci vehicula condimentum. Curabitur in libero ut massa volutpat convallis. Morbi odio odio, elementum eu, interdum eu, tincidunt in, leo.",2016-06-15 19:20:04,2017-11-07 02:44:19
275,Shipping,Active,Customer,63 Holy Cross Point,8,Jackson,Mississippi,39204,United States,"Nam ultrices, libero non mattis pulvinar, nulla pede ullamcorper augue, a suscipit nulla elit ac nulla. Sed vel enim sit amet nunc viverra dapibus. Nulla suscipit ligula in lacus. Curabitur at ipsum ac tellus semper interdum. Mauris ullamcorper purus sit amet nulla. Quisque arcu libero, rutrum ac, lobortis vel, dapibus at, diam.",2016-11-06 00:23:56,2018-11-07 06:21:26
276,Business,Active,Building,98871 Oak Valley Lane,,Camden,New Jersey,08104,United States,"Quisque erat eros, viverra eget, congue eget, semper rutrum, nulla. Nunc purus.",2016-09-24 13:20:10,2017-10-17 12:33:17
277,Home,Active,Customer,5346 Ohio Circle,,Virginia Beach,Virginia,23454,United States,"Proin leo odio, porttitor id, consequat in, consequat ut, nulla. Sed accumsan felis. Ut at dolor quis odio consequat varius. Integer ac leo. Pellentesque ultrices mattis odio. Donec vitae nisi. Nam ultrices, libero non mattis pulvinar, nulla pede ullamcorper augue, a suscipit nulla elit ac nulla. Sed vel enim sit amet nunc viverra dapibus. Nulla suscipit ligula in lacus. Curabitur at ipsum ac tellus semper interdum.",2016-04-18 14:37:53,2019-01-21 13:34:40
278,Home,Active,Building,5376 Heath Trail,,Anderson,Indiana,46015,United States,"Nulla mollis molestie lorem. Quisque ut erat. Curabitur gravida nisi at nibh. In hac habitasse platea dictumst. Aliquam augue quam, sollicitudin vitae, consectetuer eget, rutrum at, lorem. Integer tincidunt ante vel ipsum. Praesent blandit lacinia erat. Vestibulum sed magna at nunc commodo placerat.",2016-12-30 13:35:38,2017-07-23 03:13:02
279,Shipping,Active,Customer,77 Ridgeway Terrace,,Philadelphia,Pennsylvania,19125,United States,"Nunc rhoncus dui vel sem. Sed sagittis. Nam congue, risus semper porta volutpat, quam pede lobortis ligula, sit amet eleifend pede libero quis orci. Nullam molestie nibh in lectus. Pellentesque at nulla. Suspendisse potenti. Cras in purus eu magna vulputate luctus.",2016-07-18 23:26:49,2018-05-17 06:54:05
280,Home,Active,Building,2521 Sycamore Trail,,Pasadena,California,91103,United States,"Duis bibendum. Morbi non quam nec dui luctus rutrum. Nulla tellus. In sagittis dui vel nisl. Duis ac nibh. Fusce lacus purus, aliquet at, feugiat non, pretium quis, lectus. Suspendisse potenti. In eleifend quam a odio.",2017-03-17 15:21:23,2017-09-04 03:47:29
281,Billing,Active,Customer,0 Veith Way,,New York City,New York,10120,United States,"Integer ac neque. Duis bibendum. Morbi non quam nec dui luctus rutrum. Nulla tellus. In sagittis dui vel nisl. Duis ac nibh. Fusce lacus purus, aliquet at, feugiat non, pretium quis, lectus.",2017-04-12 17:54:56,2018-11-21 07:55:49
282,Shipping,Active,Building,33 Armistice Plaza,15,Ashburn,Virginia,22093,United States,"Integer pede justo, lacinia eget, tincidunt eget, tempus vel, pede. Morbi porttitor lorem id ligula. Suspendisse ornare consequat lectus.",2016-09-06 10:43:03,2018-03-31 18:26:54
283,Shipping,Active,Customer,244 Mockingbird Lane,,Berkeley,California,94712,United States,"Nunc rhoncus dui vel sem. Sed sagittis. Nam congue, risus semper porta volutpat, quam pede lobortis ligula, sit amet eleifend pede libero quis orci. Nullam molestie nibh in lectus. Pellentesque at nulla. Suspendisse potenti.",2017-05-21 00:16:02,2018-03-14 03:57:32
284,Business,Active,Building,774 Ilene Circle,19,Fresno,California,93709,United States,Morbi ut odio.,2017-05-03 22:25:25,2018-09-08 21:33:34
285,Home,Active,Customer,79228 Kings Court,8,Houston,Texas,77250,United States,"Suspendisse potenti. Cras in purus eu magna vulputate luctus. Cum sociis natoque penatibus et magnis dis parturient montes, nascetur ridiculus mus.",2016-09-11 01:50:29,2018-05-02 02:14:58
286,Home,Active,Building,253 Browning Center,,White Plains,New York,10606,United States,Donec posuere metus vitae ipsum. Aliquam non mauris.,2017-01-06 21:38:30,2018-11-10 23:34:50
287,Billing,Active,Customer,985 Fairfield Crossing,,San Francisco,California,94177,United States,Nam dui.,2016-08-13 01:16:06,2018-12-10 16:21:13
288,Shipping,Active,Building,70 Hayes Hill,15,Modesto,California,95354,United States,"In quis justo. Maecenas rhoncus aliquam lacus. Morbi quis tortor id nulla ultrices aliquet. Maecenas leo odio, condimentum id, luctus nec, molestie sed, justo. Pellentesque viverra pede ac diam. Cras pellentesque volutpat dui.",2017-04-16 11:19:27,2018-07-05 00:44:42
289,Billing,Active,Customer,8508 Golf Place,1,Columbus,Georgia,31914,United States,Nulla ut erat id mauris vulputate elementum.,2016-07-07 11:03:33,2017-10-05 10:23:56
290,Billing,Active,Building,67136 Morning Road,9,Saint Louis,Missouri,63131,United States,"In est risus, auctor sed, tristique in, tempus sit amet, sem. Fusce consequat. Nulla nisl. Nunc nisl. Duis bibendum, felis sed interdum venenatis, turpis enim blandit mi, in porttitor pede justo eu massa. Donec dapibus. Duis at velit eu est congue elementum. In hac habitasse platea dictumst.",2016-09-13 08:02:06,2017-07-09 09:42:47
291,Billing,Active,Customer,5 Kropf Alley,,Dayton,Ohio,45403,United States,"Duis consequat dui nec nisi volutpat eleifend. Donec ut dolor. Morbi vel lectus in quam fringilla rhoncus. Mauris enim leo, rhoncus sed, vestibulum sit amet, cursus id, turpis. Integer aliquet, massa id lobortis convallis, tortor risus dapibus augue, vel accumsan tellus nisi eu orci. Mauris lacinia sapien quis libero. Nullam sit amet turpis elementum ligula vehicula consequat. Morbi a ipsum. Integer a nibh. In quis justo.",2017-04-10 00:16:23,2018-02-28 00:07:59
292,Shipping,Active,Building,935 Graceland Street,,Atlanta,Georgia,31119,United States,Nullam varius. Nulla facilisi. Cras non velit nec nisi vulputate nonummy. Maecenas tincidunt lacus at velit. Vivamus vel nulla eget eros elementum pellentesque. Quisque porta volutpat erat.,2016-08-15 19:44:13,2018-07-25 14:36:09
293,Home,Active,Customer,8127 Acker Circle,,Macon,Georgia,31210,United States,"Vestibulum rutrum rutrum neque. Aenean auctor gravida sem. Praesent id massa id nisl venenatis lacinia. Aenean sit amet justo. Morbi ut odio. Cras mi pede, malesuada in, imperdiet et, commodo vulputate, justo. In blandit ultrices enim. Lorem ipsum dolor sit amet, consectetuer adipiscing elit.",2016-12-04 09:11:31,2018-07-01 13:21:31
294,Billing,Active,Building,9 Esker Parkway,15,Indianapolis,Indiana,46231,United States,"Donec diam neque, vestibulum eget, vulputate ut, ultrices vel, augue. Vestibulum ante ipsum primis in faucibus orci luctus et ultrices posuere cubilia Curae; Donec pharetra, magna vestibulum aliquet ultrices, erat tortor sollicitudin mi, sit amet lobortis sapien sapien non mi. Integer ac neque. Duis bibendum.",2016-07-14 05:45:57,2018-06-29 10:53:09
295,Shipping,Active,Customer,411 Trailsway Junction,,Reno,Nevada,89510,United States,"Cras mi pede, malesuada in, imperdiet et, commodo vulputate, justo. In blandit ultrices enim. Lorem ipsum dolor sit amet, consectetuer adipiscing elit. Proin interdum mauris non ligula pellentesque ultrices. Phasellus id sapien in sapien iaculis congue. Vivamus metus arcu, adipiscing molestie, hendrerit at, vulputate vitae, nisl.",2016-11-09 09:33:13,2017-11-25 03:32:03
296,Shipping,Active,Building,5 Weeping Birch Alley,,Columbus,Ohio,43215,United States,"Duis ac nibh. Fusce lacus purus, aliquet at, feugiat non, pretium quis, lectus. Suspendisse potenti. In eleifend quam a odio. In hac habitasse platea dictumst. Maecenas ut massa quis augue luctus tincidunt. Nulla mollis molestie lorem. Quisque ut erat.",2017-05-16 07:57:46,2017-10-18 04:13:55
297,Home,Active,Customer,51 Melby Road,,Louisville,Kentucky,40220,United States,"Donec odio justo, sollicitudin ut, suscipit a, feugiat et, eros. Vestibulum ac est lacinia nisi venenatis tristique. Fusce congue, diam id ornare imperdiet, sapien urna pretium nisl, ut volutpat sapien arcu sed augue. Aliquam erat volutpat.",2017-01-24 22:56:08,2017-08-31 04:11:08
298,Home,Active,Building,30 West Hill,20,Houston,Texas,77045,United States,Praesent blandit lacinia erat. Vestibulum sed magna at nunc commodo placerat. Praesent blandit.,2017-02-24 21:38:34,2017-08-22 17:21:01
299,Billing,Active,Customer,3403 Clyde Gallagher Place,,Las Vegas,Nevada,89115,United States,"Vivamus tortor. Duis mattis egestas metus. Aenean fermentum. Donec ut mauris eget massa tempor convallis. Nulla neque libero, convallis eget, eleifend luctus, ultricies eu, nibh. Quisque id justo sit amet sapien dignissim vestibulum. Vestibulum ante ipsum primis in faucibus orci luctus et ultrices posuere cubilia Curae; Nulla dapibus dolor vel est. Donec odio justo, sollicitudin ut, suscipit a, feugiat et, eros. Vestibulum ac est lacinia nisi venenatis tristique.",2016-12-29 10:18:52,2018-06-06 01:09:15
300,Billing,Active,Building,23 Monument Place,,Saint Cloud,Minnesota,56398,United States,In congue. Etiam justo. Etiam pretium iaculis justo. In hac habitasse platea dictumst. Etiam faucibus cursus urna. Ut tellus. Nulla ut erat id mauris vulputate elementum. Nullam varius. Nulla facilisi. Cras non velit nec nisi vulputate nonummy.,2016-09-19 23:11:14,2018-04-19 09:18:31
301,Business,Active,Customer,96 Summit Road,,Oxnard,California,93034,United States,Aenean lectus. Pellentesque eget nunc. Donec quis orci eget orci vehicula condimentum.,2017-05-04 07:44:02,2018-04-03 04:10:51
302,Business,Active,Building,336 Michigan Street,,Valdosta,Georgia,31605,United States,"Mauris lacinia sapien quis libero. Nullam sit amet turpis elementum ligula vehicula consequat. Morbi a ipsum. Integer a nibh. In quis justo. Maecenas rhoncus aliquam lacus. Morbi quis tortor id nulla ultrices aliquet. Maecenas leo odio, condimentum id, luctus nec, molestie sed, justo. Pellentesque viverra pede ac diam. Cras pellentesque volutpat dui.",2017-03-06 22:10:16,2017-12-06 03:20:17
303,Shipping,Active,Customer,9 Delladonna Circle,5,Lancaster,California,93584,United States,"Nullam orci pede, venenatis non, sodales sed, tincidunt eu, felis. Fusce posuere felis sed lacus. Morbi sem mauris, laoreet ut, rhoncus aliquet, pulvinar sed, nisl. Nunc rhoncus dui vel sem. Sed sagittis. Nam congue, risus semper porta volutpat, quam pede lobortis ligula, sit amet eleifend pede libero quis orci. Nullam molestie nibh in lectus.",2017-03-11 09:17:39,2018-04-15 04:44:23
304,Business,Active,Building,18401 Debra Crossing,7,Omaha,Nebraska,68144,United States,Morbi non lectus. Aliquam sit amet diam in magna bibendum imperdiet.,2016-11-29 21:33:45,2019-01-10 03:26:26
305,Billing,Active,Customer,306 Forest Dale Crossing,,Mobile,Alabama,36670,United States,"Quisque erat eros, viverra eget, congue eget, semper rutrum, nulla. Nunc purus. Phasellus in felis. Donec semper sapien a libero. Nam dui. Proin leo odio, porttitor id, consequat in, consequat ut, nulla. Sed accumsan felis.",2016-04-22 21:34:57,2018-12-26 09:25:23
306,Billing,Active,Building,0864 Heffernan Plaza,10,Gainesville,Florida,32605,United States,"Cum sociis natoque penatibus et magnis dis parturient montes, nascetur ridiculus mus. Vivamus vestibulum sagittis sapien. Cum sociis natoque penatibus et magnis dis parturient montes, nascetur ridiculus mus. Etiam vel augue. Vestibulum rutrum rutrum neque.",2016-06-02 20:57:17,2017-08-19 07:36:02
307,Shipping,Active,Customer,32 Green Parkway,,Houston,Texas,77276,United States,"Praesent lectus. Vestibulum quam sapien, varius ut, blandit non, interdum in, ante. Vestibulum ante ipsum primis in faucibus orci luctus et ultrices posuere cubilia Curae; Duis faucibus accumsan odio. Curabitur convallis. Duis consequat dui nec nisi volutpat eleifend. Donec ut dolor. Morbi vel lectus in quam fringilla rhoncus.",2016-07-31 00:44:32,2018-07-29 01:00:47
308,Billing,Active,Building,1 Corry Plaza,,Stockton,California,95205,United States,"Morbi porttitor lorem id ligula. Suspendisse ornare consequat lectus. In est risus, auctor sed, tristique in, tempus sit amet, sem.",2016-10-20 09:58:23,2018-07-04 04:56:38
309,Business,Active,Customer,84216 Continental Parkway,,Grand Rapids,Michigan,49560,United States,Cras non velit nec nisi vulputate nonummy. Maecenas tincidunt lacus at velit.,2016-04-24 14:47:00,2018-12-06 16:47:56
310,Home,Active,Building,721 Red Cloud Avenue,,Minneapolis,Minnesota,55446,United States,"Vestibulum ante ipsum primis in faucibus orci luctus et ultrices posuere cubilia Curae; Donec pharetra, magna vestibulum aliquet ultrices, erat tortor sollicitudin mi, sit amet lobortis sapien sapien non mi. Integer ac neque. Duis bibendum. Morbi non quam nec dui luctus rutrum. Nulla tellus. In sagittis dui vel nisl. Duis ac nibh. Fusce lacus purus, aliquet at, feugiat non, pretium quis, lectus.",2016-04-09 15:45:59,2017-09-24 00:28:42
311,Business,Active,Customer,50304 Truax Parkway,,New Orleans,Louisiana,70116,United States,"Morbi non lectus. Aliquam sit amet diam in magna bibendum imperdiet. Nullam orci pede, venenatis non, sodales sed, tincidunt eu, felis. Fusce posuere felis sed lacus. Morbi sem mauris, laoreet ut, rhoncus aliquet, pulvinar sed, nisl. Nunc rhoncus dui vel sem. Sed sagittis. Nam congue, risus semper porta volutpat, quam pede lobortis ligula, sit amet eleifend pede libero quis orci. Nullam molestie nibh in lectus. Pellentesque at nulla.",2016-03-16 20:42:43,2018-01-22 22:28:08
312,Business,Active,Building,7879 Jana Drive,,Sioux City,Iowa,51110,United States,"Morbi non lectus. Aliquam sit amet diam in magna bibendum imperdiet. Nullam orci pede, venenatis non, sodales sed, tincidunt eu, felis. Fusce posuere felis sed lacus. Morbi sem mauris, laoreet ut, rhoncus aliquet, pulvinar sed, nisl. Nunc rhoncus dui vel sem.",2016-07-27 20:24:20,2017-08-28 17:17:11
313,Billing,Active,Customer,68 Hudson Place,,Salt Lake City,Utah,84152,United States,Integer tincidunt ante vel ipsum.,2017-05-29 09:44:06,2017-12-09 18:49:02
314,Billing,Active,Building,2 Heffernan Avenue,7,Homestead,Florida,33034,United States,"Curabitur at ipsum ac tellus semper interdum. Mauris ullamcorper purus sit amet nulla. Quisque arcu libero, rutrum ac, lobortis vel, dapibus at, diam.",2016-10-29 23:24:38,2017-12-16 10:47:51
315,Business,Active,Customer,16895 Gulseth Parkway,,Long Beach,California,90847,United States,"Nam nulla. Integer pede justo, lacinia eget, tincidunt eget, tempus vel, pede. Morbi porttitor lorem id ligula. Suspendisse ornare consequat lectus. In est risus, auctor sed, tristique in, tempus sit amet, sem. Fusce consequat. Nulla nisl. Nunc nisl.",2016-10-13 22:04:27,2018-05-30 00:36:36
316,Billing,Active,Building,0 Linden Point,20,Boise,Idaho,83716,United States,Morbi a ipsum. Integer a nibh.,2017-06-06 21:46:25,2017-09-06 07:07:37
317,Business,Active,Customer,20 Division Alley,,Buffalo,New York,14276,United States,"Aliquam sit amet diam in magna bibendum imperdiet. Nullam orci pede, venenatis non, sodales sed, tincidunt eu, felis.",2017-01-07 15:12:14,2018-01-20 03:25:48
318,Billing,Active,Building,1 Paget Street,,Memphis,Tennessee,38136,United States,"Aenean sit amet justo. Morbi ut odio. Cras mi pede, malesuada in, imperdiet et, commodo vulputate, justo. In blandit ultrices enim. Lorem ipsum dolor sit amet, consectetuer adipiscing elit. Proin interdum mauris non ligula pellentesque ultrices. Phasellus id sapien in sapien iaculis congue.",2016-12-09 16:36:55,2018-04-13 09:39:36
319,Home,Active,Customer,5 Mifflin Court,,Lima,Ohio,45807,United States,"Donec quis orci eget orci vehicula condimentum. Curabitur in libero ut massa volutpat convallis. Morbi odio odio, elementum eu, interdum eu, tincidunt in, leo. Maecenas pulvinar lobortis est. Phasellus sit amet erat.",2017-02-13 23:07:00,2018-05-09 08:35:05
320,Shipping,Active,Building,024 4th Point,,Lincoln,Nebraska,68505,United States,"Donec quis orci eget orci vehicula condimentum. Curabitur in libero ut massa volutpat convallis. Morbi odio odio, elementum eu, interdum eu, tincidunt in, leo. Maecenas pulvinar lobortis est. Phasellus sit amet erat. Nulla tempus.",2017-05-23 22:09:53,2017-06-17 03:10:56
321,Billing,Active,Customer,81994 Division Parkway,,Tampa,Florida,33615,United States,"Phasellus sit amet erat. Nulla tempus. Vivamus in felis eu sapien cursus vestibulum. Proin eu mi. Nulla ac enim. In tempor, turpis nec euismod scelerisque, quam turpis adipiscing lorem, vitae mattis nibh ligula nec sem. Duis aliquam convallis nunc. Proin at turpis a pede posuere nonummy.",2017-03-06 05:02:11,2017-11-04 21:51:30
322,Home,Active,Building,69 Tomscot Court,,Philadelphia,Pennsylvania,19184,United States,Sed vel enim sit amet nunc viverra dapibus. Nulla suscipit ligula in lacus. Curabitur at ipsum ac tellus semper interdum.,2017-04-14 08:53:31,2018-05-30 12:25:13
323,Business,Active,Customer,6478 Myrtle Crossing,,Roanoke,Virginia,24009,United States,"Proin leo odio, porttitor id, consequat in, consequat ut, nulla. Sed accumsan felis.",2016-07-17 05:08:32,2017-12-26 04:03:44
324,Billing,Active,Building,9130 Doe Crossing Crossing,19,Chicago,Illinois,60652,United States,"Curabitur gravida nisi at nibh. In hac habitasse platea dictumst. Aliquam augue quam, sollicitudin vitae, consectetuer eget, rutrum at, lorem.",2016-04-19 23:57:01,2018-02-28 19:23:36
325,Shipping,Active,Customer,20 Daystar Crossing,2,Paterson,New Jersey,07544,United States,"Morbi porttitor lorem id ligula. Suspendisse ornare consequat lectus. In est risus, auctor sed, tristique in, tempus sit amet, sem. Fusce consequat. Nulla nisl. Nunc nisl.",2016-04-30 06:52:20,2019-01-26 01:35:56
326,Billing,Active,Building,42473 Lunder Lane,19,Lexington,Kentucky,40546,United States,Mauris lacinia sapien quis libero. Nullam sit amet turpis elementum ligula vehicula consequat. Morbi a ipsum.,2016-12-25 00:15:28,2018-06-10 20:11:08
327,Home,Active,Customer,611 Hoffman Alley,,Amarillo,Texas,79118,United States,"Donec diam neque, vestibulum eget, vulputate ut, ultrices vel, augue. Vestibulum ante ipsum primis in faucibus orci luctus et ultrices posuere cubilia Curae; Donec pharetra, magna vestibulum aliquet ultrices, erat tortor sollicitudin mi, sit amet lobortis sapien sapien non mi.",2016-10-04 01:50:39,2018-09-25 10:21:58
328,Home,Active,Building,04 Welch Place,10,Chattanooga,Tennessee,37405,United States,"Duis at velit eu est congue elementum. In hac habitasse platea dictumst. Morbi vestibulum, velit id pretium iaculis, diam erat fermentum justo, nec condimentum neque sapien placerat ante. Nulla justo. Aliquam quis turpis eget elit sodales scelerisque. Mauris sit amet eros. Suspendisse accumsan tortor quis turpis. Sed ante. Vivamus tortor.",2017-04-27 20:53:59,2019-01-08 04:35:14
329,Home,Active,Customer,037 School Street,,Baltimore,Maryland,21216,United States,"Morbi vestibulum, velit id pretium iaculis, diam erat fermentum justo, nec condimentum neque sapien placerat ante. Nulla justo. Aliquam quis turpis eget elit sodales scelerisque. Mauris sit amet eros. Suspendisse accumsan tortor quis turpis. Sed ante. Vivamus tortor. Duis mattis egestas metus. Aenean fermentum.",2016-10-12 07:10:46,2017-09-07 16:33:23
330,Shipping,Active,Building,26 Westridge Way,,Oklahoma City,Oklahoma,73114,United States,"Vivamus vestibulum sagittis sapien. Cum sociis natoque penatibus et magnis dis parturient montes, nascetur ridiculus mus. Etiam vel augue. Vestibulum rutrum rutrum neque. Aenean auctor gravida sem. Praesent id massa id nisl venenatis lacinia. Aenean sit amet justo. Morbi ut odio. Cras mi pede, malesuada in, imperdiet et, commodo vulputate, justo.",2016-12-22 14:44:28,2017-09-10 18:14:32
331,Shipping,Active,Customer,1 Anhalt Place,,Sacramento,California,94207,United States,"Morbi quis tortor id nulla ultrices aliquet. Maecenas leo odio, condimentum id, luctus nec, molestie sed, justo. Pellentesque viverra pede ac diam. Cras pellentesque volutpat dui.",2016-11-20 13:14:24,2018-12-01 12:23:38
332,Billing,Active,Building,17436 Westridge Lane,,Boston,Massachusetts,02109,United States,"In tempor, turpis nec euismod scelerisque, quam turpis adipiscing lorem, vitae mattis nibh ligula nec sem.",2016-10-28 01:27:54,2018-04-25 12:36:27
333,Business,Active,Customer,868 Mosinee Way,,San Francisco,California,94142,United States,Suspendisse potenti. In eleifend quam a odio. In hac habitasse platea dictumst. Maecenas ut massa quis augue luctus tincidunt. Nulla mollis molestie lorem.,2017-04-08 08:50:02,2019-02-26 03:12:29
334,Shipping,Active,Building,3489 Union Hill,,Detroit,Michigan,48211,United States,Mauris lacinia sapien quis libero. Nullam sit amet turpis elementum ligula vehicula consequat. Morbi a ipsum. Integer a nibh. In quis justo.,2017-05-25 18:57:35,2018-10-25 12:49:13
335,Shipping,Active,Customer,86190 Thierer Junction,11,Pittsburgh,Pennsylvania,15230,United States,"Donec diam neque, vestibulum eget, vulputate ut, ultrices vel, augue. Vestibulum ante ipsum primis in faucibus orci luctus et ultrices posuere cubilia Curae; Donec pharetra, magna vestibulum aliquet ultrices, erat tortor sollicitudin mi, sit amet lobortis sapien sapien non mi. Integer ac neque. Duis bibendum. Morbi non quam nec dui luctus rutrum. Nulla tellus. In sagittis dui vel nisl.",2016-12-08 08:16:01,2018-01-22 02:18:20
336,Shipping,Active,Building,8411 Gulseth Park,1,El Paso,Texas,88519,United States,"Morbi sem mauris, laoreet ut, rhoncus aliquet, pulvinar sed, nisl. Nunc rhoncus dui vel sem.",2017-04-10 01:48:28,2017-06-20 22:21:57
337,Business,Active,Customer,6 Lotheville Crossing,,Greenville,South Carolina,29615,United States,"Mauris enim leo, rhoncus sed, vestibulum sit amet, cursus id, turpis. Integer aliquet, massa id lobortis convallis, tortor risus dapibus augue, vel accumsan tellus nisi eu orci. Mauris lacinia sapien quis libero. Nullam sit amet turpis elementum ligula vehicula consequat. Morbi a ipsum. Integer a nibh. In quis justo. Maecenas rhoncus aliquam lacus.",2016-11-11 09:29:49,2018-02-17 08:14:54
338,Business,Active,Building,1 Ramsey Point,,Chicago,Illinois,60641,United States,"Donec diam neque, vestibulum eget, vulputate ut, ultrices vel, augue.",2016-04-28 05:30:04,2018-04-11 17:57:47
339,Billing,Active,Customer,884 Thierer Alley,,Dallas,Texas,75310,United States,Nulla ut erat id mauris vulputate elementum. Nullam varius.,2016-11-17 00:33:36,2018-07-30 01:38:48
340,Shipping,Active,Building,4 Toban Drive,,Norfolk,Virginia,23504,United States,"Morbi vestibulum, velit id pretium iaculis, diam erat fermentum justo, nec condimentum neque sapien placerat ante. Nulla justo. Aliquam quis turpis eget elit sodales scelerisque. Mauris sit amet eros.",2017-02-02 14:56:48,2019-01-10 01:39:43
341,Business,Active,Customer,16 Prairie Rose Point,,Gainesville,Florida,32610,United States,Duis at velit eu est congue elementum.,2016-09-29 00:05:12,2018-06-02 16:39:23
342,Shipping,Active,Building,09782 Sunfield Parkway,,Tampa,Florida,33686,United States,"Donec ut dolor. Morbi vel lectus in quam fringilla rhoncus. Mauris enim leo, rhoncus sed, vestibulum sit amet, cursus id, turpis. Integer aliquet, massa id lobortis convallis, tortor risus dapibus augue, vel accumsan tellus nisi eu orci. Mauris lacinia sapien quis libero. Nullam sit amet turpis elementum ligula vehicula consequat. Morbi a ipsum.",2016-08-12 22:59:57,2018-01-09 06:19:33
343,Billing,Active,Customer,301 Stoughton Pass,,Tulsa,Oklahoma,74193,United States,Maecenas ut massa quis augue luctus tincidunt. Nulla mollis molestie lorem. Quisque ut erat. Curabitur gravida nisi at nibh. In hac habitasse platea dictumst.,2016-06-18 21:19:29,2018-05-18 20:40:59
344,Business,Active,Building,3545 Village Green Court,,San Jose,California,95150,United States,Duis consequat dui nec nisi volutpat eleifend. Donec ut dolor. Morbi vel lectus in quam fringilla rhoncus.,2016-10-11 01:02:40,2019-01-11 18:36:28
345,Business,Active,Customer,0606 Scoville Alley,,Boulder,Colorado,80310,United States,Aenean fermentum.,2016-09-03 05:25:34,2018-12-26 15:28:46
346,Home,Active,Building,97 Clemons Point,,Saint Petersburg,Florida,33742,United States,"Cras in purus eu magna vulputate luctus. Cum sociis natoque penatibus et magnis dis parturient montes, nascetur ridiculus mus. Vivamus vestibulum sagittis sapien. Cum sociis natoque penatibus et magnis dis parturient montes, nascetur ridiculus mus. Etiam vel augue. Vestibulum rutrum rutrum neque. Aenean auctor gravida sem. Praesent id massa id nisl venenatis lacinia. Aenean sit amet justo.",2017-03-08 00:29:57,2017-11-26 17:03:58
347,Home,Active,Customer,5 Lakewood Gardens Place,,Honolulu,Hawaii,96815,United States,"Donec ut mauris eget massa tempor convallis. Nulla neque libero, convallis eget, eleifend luctus, ultricies eu, nibh. Quisque id justo sit amet sapien dignissim vestibulum. Vestibulum ante ipsum primis in faucibus orci luctus et ultrices posuere cubilia Curae; Nulla dapibus dolor vel est.",2016-06-18 16:32:14,2017-07-12 04:05:55
348,Business,Active,Building,4 Pawling Circle,13,Garland,Texas,75049,United States,"Curabitur gravida nisi at nibh. In hac habitasse platea dictumst. Aliquam augue quam, sollicitudin vitae, consectetuer eget, rutrum at, lorem. Integer tincidunt ante vel ipsum. Praesent blandit lacinia erat. Vestibulum sed magna at nunc commodo placerat. Praesent blandit.",2016-04-23 17:56:46,2018-11-28 10:53:03
349,Shipping,Active,Customer,10540 6th Park,,Long Beach,California,90840,United States,"Lorem ipsum dolor sit amet, consectetuer adipiscing elit. Proin risus. Praesent lectus. Vestibulum quam sapien, varius ut, blandit non, interdum in, ante.",2016-11-15 13:42:55,2018-11-19 09:30:30
350,Home,Active,Building,0398 Southridge Park,5,Atlanta,Georgia,30392,United States,"Vivamus in felis eu sapien cursus vestibulum. Proin eu mi. Nulla ac enim. In tempor, turpis nec euismod scelerisque, quam turpis adipiscing lorem, vitae mattis nibh ligula nec sem. Duis aliquam convallis nunc. Proin at turpis a pede posuere nonummy. Integer non velit. Donec diam neque, vestibulum eget, vulputate ut, ultrices vel, augue. Vestibulum ante ipsum primis in faucibus orci luctus et ultrices posuere cubilia Curae; Donec pharetra, magna vestibulum aliquet ultrices, erat tortor sollicitudin mi, sit amet lobortis sapien sapien non mi. Integer ac neque.",2016-12-30 02:36:55,2019-01-28 09:40:45
351,Shipping,Active,Customer,7739 Dwight Hill,,Boise,Idaho,83711,United States,"Cum sociis natoque penatibus et magnis dis parturient montes, nascetur ridiculus mus. Vivamus vestibulum sagittis sapien. Cum sociis natoque penatibus et magnis dis parturient montes, nascetur ridiculus mus. Etiam vel augue. Vestibulum rutrum rutrum neque. Aenean auctor gravida sem.",2017-02-24 04:44:45,2018-08-11 23:01:51
352,Shipping,Active,Building,1 Cambridge Plaza,,Atlanta,Georgia,30340,United States,"Duis bibendum, felis sed interdum venenatis, turpis enim blandit mi, in porttitor pede justo eu massa. Donec dapibus. Duis at velit eu est congue elementum. In hac habitasse platea dictumst. Morbi vestibulum, velit id pretium iaculis, diam erat fermentum justo, nec condimentum neque sapien placerat ante.",2016-11-12 11:16:11,2018-01-06 23:09:00
353,Business,Active,Customer,119 Schiller Road,,San Antonio,Texas,78220,United States,"Vivamus vel nulla eget eros elementum pellentesque. Quisque porta volutpat erat. Quisque erat eros, viverra eget, congue eget, semper rutrum, nulla. Nunc purus.",2016-10-06 09:28:14,2017-07-16 14:39:19
354,Home,Active,Building,3796 Susan Pass,,Buffalo,New York,14276,United States,"Fusce consequat. Nulla nisl. Nunc nisl. Duis bibendum, felis sed interdum venenatis, turpis enim blandit mi, in porttitor pede justo eu massa. Donec dapibus. Duis at velit eu est congue elementum. In hac habitasse platea dictumst. Morbi vestibulum, velit id pretium iaculis, diam erat fermentum justo, nec condimentum neque sapien placerat ante. Nulla justo.",2016-10-28 07:10:25,2017-08-05 22:51:38
355,Home,Active,Customer,30 Longview Alley,13,Springfield,Illinois,62723,United States,"Fusce posuere felis sed lacus. Morbi sem mauris, laoreet ut, rhoncus aliquet, pulvinar sed, nisl. Nunc rhoncus dui vel sem. Sed sagittis.",2017-01-13 08:33:57,2018-04-11 01:12:04
356,Business,Active,Building,2 Blackbird Parkway,,Nashville,Tennessee,37210,United States,"Sed ante. Vivamus tortor. Duis mattis egestas metus. Aenean fermentum. Donec ut mauris eget massa tempor convallis. Nulla neque libero, convallis eget, eleifend luctus, ultricies eu, nibh. Quisque id justo sit amet sapien dignissim vestibulum. Vestibulum ante ipsum primis in faucibus orci luctus et ultrices posuere cubilia Curae; Nulla dapibus dolor vel est. Donec odio justo, sollicitudin ut, suscipit a, feugiat et, eros.",2017-01-20 05:17:52,2017-09-15 12:39:30
357,Home,Active,Customer,2 Tony Pass,,Cincinnati,Ohio,45223,United States,"In eleifend quam a odio. In hac habitasse platea dictumst. Maecenas ut massa quis augue luctus tincidunt. Nulla mollis molestie lorem. Quisque ut erat. Curabitur gravida nisi at nibh. In hac habitasse platea dictumst. Aliquam augue quam, sollicitudin vitae, consectetuer eget, rutrum at, lorem. Integer tincidunt ante vel ipsum.",2016-11-03 12:53:58,2018-12-17 14:11:40
358,Shipping,Active,Building,93 Spenser Crossing,,Pocatello,Idaho,83206,United States,"Vestibulum quam sapien, varius ut, blandit non, interdum in, ante. Vestibulum ante ipsum primis in faucibus orci luctus et ultrices posuere cubilia Curae; Duis faucibus accumsan odio. Curabitur convallis. Duis consequat dui nec nisi volutpat eleifend. Donec ut dolor.",2016-10-14 02:15:12,2018-04-24 13:06:36
359,Home,Active,Customer,0416 Clove Point,,Pensacola,Florida,32595,United States,"Nunc nisl. Duis bibendum, felis sed interdum venenatis, turpis enim blandit mi, in porttitor pede justo eu massa. Donec dapibus. Duis at velit eu est congue elementum. In hac habitasse platea dictumst. Morbi vestibulum, velit id pretium iaculis, diam erat fermentum justo, nec condimentum neque sapien placerat ante. Nulla justo.",2016-10-26 18:09:02,2018-02-19 01:19:41
360,Home,Active,Building,4 Coleman Street,,Washington,District of Columbia,20392,United States,"Phasellus sit amet erat. Nulla tempus. Vivamus in felis eu sapien cursus vestibulum. Proin eu mi. Nulla ac enim. In tempor, turpis nec euismod scelerisque, quam turpis adipiscing lorem, vitae mattis nibh ligula nec sem. Duis aliquam convallis nunc. Proin at turpis a pede posuere nonummy. Integer non velit.",2016-09-28 23:13:56,2017-10-02 12:57:09
361,Business,Active,Customer,15368 Golf Crossing,,Duluth,Georgia,30096,United States,"Praesent id massa id nisl venenatis lacinia. Aenean sit amet justo. Morbi ut odio. Cras mi pede, malesuada in, imperdiet et, commodo vulputate, justo.",2017-01-02 01:37:29,2018-08-26 14:17:53
362,Shipping,Active,Building,0652 Roth Road,,Lehigh Acres,Florida,33972,United States,Vestibulum rutrum rutrum neque. Aenean auctor gravida sem.,2016-04-24 07:36:25,2017-09-06 01:21:00
363,Business,Active,Customer,818 Basil Park,,Baltimore,Maryland,21265,United States,"Duis mattis egestas metus. Aenean fermentum. Donec ut mauris eget massa tempor convallis. Nulla neque libero, convallis eget, eleifend luctus, ultricies eu, nibh. Quisque id justo sit amet sapien dignissim vestibulum. Vestibulum ante ipsum primis in faucibus orci luctus et ultrices posuere cubilia Curae; Nulla dapibus dolor vel est. Donec odio justo, sollicitudin ut, suscipit a, feugiat et, eros.",2016-08-14 12:22:48,2018-10-01 05:04:10
364,Billing,Active,Building,70959 Bonner Road,,Shawnee Mission,Kansas,66220,United States,"Praesent blandit lacinia erat. Vestibulum sed magna at nunc commodo placerat. Praesent blandit. Nam nulla. Integer pede justo, lacinia eget, tincidunt eget, tempus vel, pede. Morbi porttitor lorem id ligula. Suspendisse ornare consequat lectus.",2016-10-11 23:52:13,2018-06-20 04:19:53
365,Shipping,Active,Customer,487 Veith Junction,,Columbia,South Carolina,29208,United States,Mauris sit amet eros. Suspendisse accumsan tortor quis turpis. Sed ante. Vivamus tortor. Duis mattis egestas metus.,2016-07-10 04:14:51,2019-03-09 22:09:23
366,Billing,Active,Building,6298 Corscot Terrace,,Albuquerque,New Mexico,87121,United States,"Fusce posuere felis sed lacus. Morbi sem mauris, laoreet ut, rhoncus aliquet, pulvinar sed, nisl. Nunc rhoncus dui vel sem. Sed sagittis. Nam congue, risus semper porta volutpat, quam pede lobortis ligula, sit amet eleifend pede libero quis orci. Nullam molestie nibh in lectus. Pellentesque at nulla. Suspendisse potenti. Cras in purus eu magna vulputate luctus.",2016-09-07 09:26:56,2018-01-13 11:36:53
367,Business,Active,Customer,1601 Buhler Drive,,Ogden,Utah,84409,United States,Vivamus tortor.,2016-10-16 06:32:53,2017-10-10 14:15:48
368,Home,Active,Building,2 Arrowood Hill,17,Albuquerque,New Mexico,87115,United States,Mauris lacinia sapien quis libero. Nullam sit amet turpis elementum ligula vehicula consequat. Morbi a ipsum. Integer a nibh. In quis justo.,2016-11-06 04:54:06,2017-10-02 21:40:04
369,Home,Active,Customer,38 Pine View Trail,20,Pensacola,Florida,32526,United States,"Cras mi pede, malesuada in, imperdiet et, commodo vulputate, justo. In blandit ultrices enim. Lorem ipsum dolor sit amet, consectetuer adipiscing elit. Proin interdum mauris non ligula pellentesque ultrices. Phasellus id sapien in sapien iaculis congue. Vivamus metus arcu, adipiscing molestie, hendrerit at, vulputate vitae, nisl. Aenean lectus. Pellentesque eget nunc. Donec quis orci eget orci vehicula condimentum. Curabitur in libero ut massa volutpat convallis.",2016-07-15 20:32:21,2018-10-18 18:18:53
370,Business,Active,Building,07 Brown Parkway,,El Paso,Texas,79955,United States,"Vestibulum ac est lacinia nisi venenatis tristique. Fusce congue, diam id ornare imperdiet, sapien urna pretium nisl, ut volutpat sapien arcu sed augue. Aliquam erat volutpat.",2016-07-04 14:13:17,2018-11-14 14:21:48
371,Shipping,Active,Customer,68617 Eagle Crest Park,3,Cedar Rapids,Iowa,52410,United States,"Vestibulum ante ipsum primis in faucibus orci luctus et ultrices posuere cubilia Curae; Mauris viverra diam vitae quam. Suspendisse potenti. Nullam porttitor lacus at turpis. Donec posuere metus vitae ipsum. Aliquam non mauris. Morbi non lectus. Aliquam sit amet diam in magna bibendum imperdiet. Nullam orci pede, venenatis non, sodales sed, tincidunt eu, felis. Fusce posuere felis sed lacus.",2016-09-29 13:20:56,2018-03-09 01:05:43
372,Home,Active,Building,57 Division Way,,Winston Salem,North Carolina,27116,United States,"Morbi porttitor lorem id ligula. Suspendisse ornare consequat lectus. In est risus, auctor sed, tristique in, tempus sit amet, sem. Fusce consequat. Nulla nisl. Nunc nisl. Duis bibendum, felis sed interdum venenatis, turpis enim blandit mi, in porttitor pede justo eu massa. Donec dapibus. Duis at velit eu est congue elementum. In hac habitasse platea dictumst.",2017-01-20 17:55:33,2018-05-19 13:38:03
373,Home,Active,Customer,83030 Straubel Park,,Orlando,Florida,32859,United States,Suspendisse potenti. In eleifend quam a odio. In hac habitasse platea dictumst. Maecenas ut massa quis augue luctus tincidunt. Nulla mollis molestie lorem.,2017-02-25 02:46:48,2018-01-23 07:27:49
374,Shipping,Active,Building,6 Loeprich Drive,17,San Diego,California,92165,United States,"Vestibulum quam sapien, varius ut, blandit non, interdum in, ante. Vestibulum ante ipsum primis in faucibus orci luctus et ultrices posuere cubilia Curae; Duis faucibus accumsan odio. Curabitur convallis. Duis consequat dui nec nisi volutpat eleifend. Donec ut dolor.",2016-05-15 15:22:31,2017-11-17 14:29:23
375,Shipping,Active,Customer,9124 Pawling Place,,Jackson,Tennessee,38308,United States,"Vestibulum sed magna at nunc commodo placerat. Praesent blandit. Nam nulla. Integer pede justo, lacinia eget, tincidunt eget, tempus vel, pede. Morbi porttitor lorem id ligula. Suspendisse ornare consequat lectus. In est risus, auctor sed, tristique in, tempus sit amet, sem.",2017-06-11 20:24:42,2018-09-12 08:38:50
376,Shipping,Active,Building,92902 Reindahl Pass,,Bradenton,Florida,34282,United States,"Praesent blandit. Nam nulla. Integer pede justo, lacinia eget, tincidunt eget, tempus vel, pede. Morbi porttitor lorem id ligula. Suspendisse ornare consequat lectus. In est risus, auctor sed, tristique in, tempus sit amet, sem. Fusce consequat. Nulla nisl. Nunc nisl. Duis bibendum, felis sed interdum venenatis, turpis enim blandit mi, in porttitor pede justo eu massa.",2016-05-15 01:12:15,2017-09-01 08:04:43
377,Home,Active,Customer,1056 Vermont Park,,Birmingham,Alabama,35290,United States,"Vestibulum ante ipsum primis in faucibus orci luctus et ultrices posuere cubilia Curae; Donec pharetra, magna vestibulum aliquet ultrices, erat tortor sollicitudin mi, sit amet lobortis sapien sapien non mi. Integer ac neque. Duis bibendum. Morbi non quam nec dui luctus rutrum. Nulla tellus. In sagittis dui vel nisl. Duis ac nibh. Fusce lacus purus, aliquet at, feugiat non, pretium quis, lectus.",2016-05-29 18:16:50,2017-10-25 02:11:31
378,Billing,Active,Building,228 Anniversary Circle,9,San Diego,California,92191,United States,"In hac habitasse platea dictumst. Morbi vestibulum, velit id pretium iaculis, diam erat fermentum justo, nec condimentum neque sapien placerat ante. Nulla justo. Aliquam quis turpis eget elit sodales scelerisque. Mauris sit amet eros. Suspendisse accumsan tortor quis turpis. Sed ante. Vivamus tortor. Duis mattis egestas metus. Aenean fermentum.",2016-04-21 23:43:53,2017-11-06 12:25:20
379,Home,Active,Customer,615 Vermont Lane,,New Orleans,Louisiana,70116,United States,Aliquam quis turpis eget elit sodales scelerisque. Mauris sit amet eros. Suspendisse accumsan tortor quis turpis. Sed ante. Vivamus tortor. Duis mattis egestas metus.,2016-06-01 08:49:17,2018-10-24 08:56:14
380,Billing,Active,Building,1496 Garrison Terrace,13,Austin,Texas,78769,United States,Aliquam erat volutpat. In congue. Etiam justo. Etiam pretium iaculis justo. In hac habitasse platea dictumst. Etiam faucibus cursus urna. Ut tellus. Nulla ut erat id mauris vulputate elementum.,2016-09-14 12:42:05,2019-01-03 17:07:36
381,Home,Active,Customer,3748 Kensington Drive,,Tulsa,Oklahoma,74149,United States,"Donec vitae nisi. Nam ultrices, libero non mattis pulvinar, nulla pede ullamcorper augue, a suscipit nulla elit ac nulla. Sed vel enim sit amet nunc viverra dapibus.",2017-01-26 21:46:19,2017-12-29 09:13:52
382,Shipping,Active,Building,416 Armistice Point,,Fort Lauderdale,Florida,33315,United States,Phasellus sit amet erat. Nulla tempus. Vivamus in felis eu sapien cursus vestibulum.,2017-06-10 23:22:14,2019-03-12 08:42:55
383,Business,Active,Customer,0 Northview Place,11,Ocala,Florida,34474,United States,"Vestibulum ac est lacinia nisi venenatis tristique. Fusce congue, diam id ornare imperdiet, sapien urna pretium nisl, ut volutpat sapien arcu sed augue.",2016-05-24 11:44:29,2018-03-26 12:58:43
384,Home,Active,Building,388 Duke Way,,Wilkes Barre,Pennsylvania,18763,United States,"Proin eu mi. Nulla ac enim. In tempor, turpis nec euismod scelerisque, quam turpis adipiscing lorem, vitae mattis nibh ligula nec sem. Duis aliquam convallis nunc. Proin at turpis a pede posuere nonummy. Integer non velit.",2017-02-22 23:50:14,2018-04-17 18:13:22
385,Shipping,Active,Customer,42 Killdeer Circle,,Lansing,Michigan,48912,United States,Aenean sit amet justo.,2016-07-26 12:54:06,2017-07-16 21:56:37
386,Shipping,Active,Building,47341 Dottie Hill,,Baton Rouge,Louisiana,70805,United States,"Morbi sem mauris, laoreet ut, rhoncus aliquet, pulvinar sed, nisl. Nunc rhoncus dui vel sem. Sed sagittis. Nam congue, risus semper porta volutpat, quam pede lobortis ligula, sit amet eleifend pede libero quis orci. Nullam molestie nibh in lectus. Pellentesque at nulla. Suspendisse potenti. Cras in purus eu magna vulputate luctus. Cum sociis natoque penatibus et magnis dis parturient montes, nascetur ridiculus mus.",2016-12-09 11:49:33,2017-12-08 16:05:08
387,Shipping,Active,Customer,5 Elmside Drive,,Shreveport,Louisiana,71137,United States,Donec vitae nisi.,2016-05-17 08:59:13,2018-08-05 09:04:41
388,Business,Active,Building,835 Glacier Hill Alley,,Bellevue,Washington,98008,United States,"Cras mi pede, malesuada in, imperdiet et, commodo vulputate, justo. In blandit ultrices enim. Lorem ipsum dolor sit amet, consectetuer adipiscing elit. Proin interdum mauris non ligula pellentesque ultrices. Phasellus id sapien in sapien iaculis congue.",2016-11-23 11:22:43,2017-10-13 13:28:24
389,Shipping,Active,Customer,9 Heath Crossing,,Tucson,Arizona,85748,United States,"Donec ut dolor. Morbi vel lectus in quam fringilla rhoncus. Mauris enim leo, rhoncus sed, vestibulum sit amet, cursus id, turpis.",2016-12-25 10:08:58,2017-11-09 04:34:25
390,Home,Active,Building,0 Crowley Place,,Duluth,Georgia,30195,United States,"Nulla neque libero, convallis eget, eleifend luctus, ultricies eu, nibh. Quisque id justo sit amet sapien dignissim vestibulum. Vestibulum ante ipsum primis in faucibus orci luctus et ultrices posuere cubilia Curae; Nulla dapibus dolor vel est. Donec odio justo, sollicitudin ut, suscipit a, feugiat et, eros. Vestibulum ac est lacinia nisi venenatis tristique. Fusce congue, diam id ornare imperdiet, sapien urna pretium nisl, ut volutpat sapien arcu sed augue. Aliquam erat volutpat. In congue.",2017-01-11 23:28:06,2019-02-28 10:29:29
391,Business,Active,Customer,490 Comanche Court,20,Temple,Texas,76505,United States,"Curabitur in libero ut massa volutpat convallis. Morbi odio odio, elementum eu, interdum eu, tincidunt in, leo. Maecenas pulvinar lobortis est. Phasellus sit amet erat. Nulla tempus. Vivamus in felis eu sapien cursus vestibulum.",2017-01-03 15:55:58,2018-09-07 14:29:20
392,Shipping,Active,Building,49 Forest Dale Pass,,Corona,California,92878,United States,Donec posuere metus vitae ipsum. Aliquam non mauris. Morbi non lectus. Aliquam sit amet diam in magna bibendum imperdiet.,2016-12-26 12:06:12,2018-11-02 17:42:47
393,Home,Active,Customer,3874 School Way,15,Houston,Texas,77206,United States,"Quisque erat eros, viverra eget, congue eget, semper rutrum, nulla. Nunc purus. Phasellus in felis. Donec semper sapien a libero. Nam dui.",2016-07-02 10:33:38,2019-02-10 12:30:43
394,Home,Active,Building,99 Prairie Rose Terrace,,Saint Petersburg,Florida,33742,United States,Vestibulum rutrum rutrum neque.,2016-10-27 01:58:23,2018-06-07 03:53:52
395,Home,Active,Customer,71645 Commercial Pass,,Panama City,Florida,32412,United States,"Vivamus tortor. Duis mattis egestas metus. Aenean fermentum. Donec ut mauris eget massa tempor convallis. Nulla neque libero, convallis eget, eleifend luctus, ultricies eu, nibh.",2017-04-14 23:54:12,2017-06-13 00:00:28
396,Billing,Active,Building,63 Pennsylvania Court,,West Palm Beach,Florida,33416,United States,In congue. Etiam justo. Etiam pretium iaculis justo. In hac habitasse platea dictumst. Etiam faucibus cursus urna. Ut tellus. Nulla ut erat id mauris vulputate elementum.,2017-03-10 23:58:53,2018-11-08 22:29:39
397,Home,Active,Customer,692 Grayhawk Point,,Houston,Texas,77015,United States,"Sed ante. Vivamus tortor. Duis mattis egestas metus. Aenean fermentum. Donec ut mauris eget massa tempor convallis. Nulla neque libero, convallis eget, eleifend luctus, ultricies eu, nibh. Quisque id justo sit amet sapien dignissim vestibulum.",2017-03-18 02:48:17,2017-12-30 15:51:03
398,Billing,Active,Building,9 Oak Crossing,,Washington,District of Columbia,20414,United States,Nulla nisl.,2016-12-13 22:57:35,2018-10-11 22:25:47
399,Billing,Active,Customer,6 Menomonie Drive,,Baton Rouge,Louisiana,70836,United States,Sed ante.,2016-08-11 15:11:39,2017-10-16 13:33:06
400,Business,Active,Building,4153 Badeau Plaza,,Bloomington,Indiana,47405,United States,"Nunc nisl. Duis bibendum, felis sed interdum venenatis, turpis enim blandit mi, in porttitor pede justo eu massa. Donec dapibus. Duis at velit eu est congue elementum.",2017-04-05 16:37:12,2017-06-28 23:13:12
